,zip,AQI,Category,DateObserved,HourObserved,Latitude,LocalTimeZone,Longitude,ParameterName,ReportingArea,StateCode
0,95452,25,"{'Number': 1, 'Name': 'Good'}",2018-10-09 ,0,38.45,PST,-122.7,OZONE,Santa Rosa,CA
1,94960,27,"{'Number': 1, 'Name': 'Good'}",2018-10-10 ,0,37.97,PST,-122.52,OZONE,San Rafael,CA
2,94960,33,"{'Number': 1, 'Name': 'Good'}",2018-10-10 ,0,37.97,PST,-122.52,PM2.5,San Rafael,CA
3,94972,27,"{'Number': 1, 'Name': 'Good'}",2018-10-11 ,0,38.45,PST,-122.7,OZONE,Santa Rosa,CA
4,94972,6,"{'Number': 1, 'Name': 'Good'}",2018-10-11 ,0,38.45,PST,-122.7,PM2.5,Santa Rosa,CA
5,94666,25,"{'Number': 1, 'Name': 'Good'}",2018-10-12 ,0,37.8,PST,-122.27,OZONE,Oakland,CA
6,94666,44,"{'Number': 1, 'Name': 'Good'}",2018-10-12 ,0,37.8,PST,-122.27,PM2.5,Oakland,CA
7,94118,31,"{'Number': 1, 'Name': 'Good'}",2018-10-13 ,0,37.75,PST,-122.43,OZONE,San Francisco,CA
8,94118,41,"{'Number': 1, 'Name': 'Good'}",2018-10-13 ,0,37.75,PST,-122.43,PM2.5,San Francisco,CA
9,94952,31,"{'Number': 1, 'Name': 'Good'}",2018-10-14 ,0,37.97,PST,-122.52,OZONE,San Rafael,CA
10,94952,38,"{'Number': 1, 'Name': 'Good'}",2018-10-14 ,0,37.97,PST,-122.52,PM2.5,San Rafael,CA
11,95055,41,"{'Number': 1, 'Name': 'Good'}",2018-10-15 ,0,37.33,PST,-121.9,OZONE,San Jose,CA
12,95055,25,"{'Number': 1, 'Name': 'Good'}",2018-10-15 ,0,37.33,PST,-121.9,PM2.5,San Jose,CA
13,94403,38,"{'Number': 1, 'Name': 'Good'}",2018-10-15 ,0,37.48,PST,-122.22,OZONE,Redwood City,CA
14,94403,20,"{'Number': 1, 'Name': 'Good'}",2018-10-15 ,0,37.48,PST,-122.22,PM2.5,Redwood City,CA
15,95401,25,"{'Number': 1, 'Name': 'Good'}",2018-10-09 ,0,38.45,PST,-122.7,OZONE,Santa Rosa,CA
16,95141,31,"{'Number': 1, 'Name': 'Good'}",2018-10-10 ,0,37.33,PST,-121.9,OZONE,San Jose,CA
17,95141,15,"{'Number': 1, 'Name': 'Good'}",2018-10-10 ,0,37.33,PST,-121.9,PM2.5,San Jose,CA
18,95407,27,"{'Number': 1, 'Name': 'Good'}",2018-10-11 ,0,38.45,PST,-122.7,OZONE,Santa Rosa,CA
19,95407,6,"{'Number': 1, 'Name': 'Good'}",2018-10-11 ,0,38.45,PST,-122.7,PM2.5,Santa Rosa,CA
20,94604,25,"{'Number': 1, 'Name': 'Good'}",2018-10-12 ,0,37.8,PST,-122.27,OZONE,Oakland,CA
21,94604,44,"{'Number': 1, 'Name': 'Good'}",2018-10-12 ,0,37.8,PST,-122.27,PM2.5,Oakland,CA
22,95140,38,"{'Number': 1, 'Name': 'Good'}",2018-10-13 ,0,37.33,PST,-121.9,OZONE,San Jose,CA
23,95140,23,"{'Number': 1, 'Name': 'Good'}",2018-10-13 ,0,37.33,PST,-121.9,PM2.5,San Jose,CA
24,94557,36,"{'Number': 1, 'Name': 'Good'}",2018-10-14 ,0,37.55,PST,-122.03,OZONE,Fremont,CA
25,94557,48,"{'Number': 1, 'Name': 'Good'}",2018-10-14 ,0,37.55,PST,-122.03,PM2.5,Fremont,CA
26,94023,38,"{'Number': 1, 'Name': 'Good'}",2018-10-15 ,0,37.48,PST,-122.22,OZONE,Redwood City,CA
27,94023,20,"{'Number': 1, 'Name': 'Good'}",2018-10-15 ,0,37.48,PST,-122.22,PM2.5,Redwood City,CA
28,94937,41,"{'Number': 1, 'Name': 'Good'}",2018-10-15 ,0,37.97,PST,-122.52,OZONE,San Rafael,CA
29,94937,19,"{'Number': 1, 'Name': 'Good'}",2018-10-15 ,0,37.97,PST,-122.52,PM2.5,San Rafael,CA
30,94920,25,"{'Number': 1, 'Name': 'Good'}",2018-10-09 ,0,37.97,PST,-122.52,OZONE,San Rafael,CA
31,94920,29,"{'Number': 1, 'Name': 'Good'}",2018-10-09 ,0,37.97,PST,-122.52,PM2.5,San Rafael,CA
32,95404,30,"{'Number': 1, 'Name': 'Good'}",2018-10-10 ,0,38.45,PST,-122.7,OZONE,Santa Rosa,CA
33,95404,10,"{'Number': 1, 'Name': 'Good'}",2018-10-10 ,0,38.45,PST,-122.7,PM2.5,Santa Rosa,CA
34,94948,28,"{'Number': 1, 'Name': 'Good'}",2018-10-11 ,0,37.97,PST,-122.52,OZONE,San Rafael,CA
35,94948,32,"{'Number': 1, 'Name': 'Good'}",2018-10-11 ,0,37.97,PST,-122.52,PM2.5,San Rafael,CA
36,95032,43,"{'Number': 1, 'Name': 'Good'}",2018-10-12 ,0,37.33,PST,-121.9,OZONE,San Jose,CA
37,95032,25,"{'Number': 1, 'Name': 'Good'}",2018-10-12 ,0,37.33,PST,-121.9,PM2.5,San Jose,CA
38,94923,28,"{'Number': 1, 'Name': 'Good'}",2018-10-13 ,0,38.45,PST,-122.7,OZONE,Santa Rosa,CA
39,94923,6,"{'Number': 1, 'Name': 'Good'}",2018-10-13 ,0,38.45,PST,-122.7,PM2.5,Santa Rosa,CA
40,94523,30,"{'Number': 1, 'Name': 'Good'}",2018-10-14 ,0,37.97,PST,-122.03,OZONE,Concord,CA
41,94523,22,"{'Number': 1, 'Name': 'Good'}",2018-10-14 ,0,37.97,PST,-122.03,PM2.5,Concord,CA
42,94549,33,"{'Number': 1, 'Name': 'Good'}",2018-10-15 ,0,37.97,PST,-122.03,OZONE,Concord,CA
43,94549,9,"{'Number': 1, 'Name': 'Good'}",2018-10-15 ,0,37.97,PST,-122.03,PM2.5,Concord,CA
44,94585,41,"{'Number': 1, 'Name': 'Good'}",2018-10-15 ,0,38.25,PST,-122.04,OZONE,Fairfield,CA
45,95412,25,"{'Number': 1, 'Name': 'Good'}",2018-10-09 ,0,38.9088,PST,-123.6931,OZONE,Point Arena,CA
46,95412,19,"{'Number': 1, 'Name': 'Good'}",2018-10-09 ,0,38.9088,PST,-123.6931,PM10,Point Arena,CA
47,94041,26,"{'Number': 1, 'Name': 'Good'}",2018-10-10 ,0,37.48,PST,-122.22,OZONE,Redwood City,CA
48,94041,19,"{'Number': 1, 'Name': 'Good'}",2018-10-10 ,0,37.48,PST,-122.22,PM2.5,Redwood City,CA
49,94088,39,"{'Number': 1, 'Name': 'Good'}",2018-10-11 ,0,37.33,PST,-121.9,OZONE,San Jose,CA
50,94088,28,"{'Number': 1, 'Name': 'Good'}",2018-10-11 ,0,37.33,PST,-121.9,PM2.5,San Jose,CA
51,94518,32,"{'Number': 1, 'Name': 'Good'}",2018-10-12 ,0,37.97,PST,-122.03,OZONE,Concord,CA
52,94518,20,"{'Number': 1, 'Name': 'Good'}",2018-10-12 ,0,37.97,PST,-122.03,PM2.5,Concord,CA
53,94591,42,"{'Number': 1, 'Name': 'Good'}",2018-10-13 ,0,38.25,PST,-122.04,OZONE,Fairfield,CA
54,94005,31,"{'Number': 1, 'Name': 'Good'}",2018-10-14 ,0,37.75,PST,-122.43,OZONE,San Francisco,CA
55,94005,48,"{'Number': 1, 'Name': 'Good'}",2018-10-14 ,0,37.75,PST,-122.43,PM2.5,San Francisco,CA
56,94806,41,"{'Number': 1, 'Name': 'Good'}",2018-10-15 ,0,37.97,PST,-122.52,OZONE,San Rafael,CA
57,94806,19,"{'Number': 1, 'Name': 'Good'}",2018-10-15 ,0,37.97,PST,-122.52,PM2.5,San Rafael,CA
58,95170,41,"{'Number': 1, 'Name': 'Good'}",2018-10-15 ,0,37.33,PST,-121.9,OZONE,San Jose,CA
59,95170,25,"{'Number': 1, 'Name': 'Good'}",2018-10-15 ,0,37.33,PST,-121.9,PM2.5,San Jose,CA
60,94573,31,"{'Number': 1, 'Name': 'Good'}",2018-10-09 ,0,38.33,PST,-122.28,OZONE,Napa,CA
61,94573,28,"{'Number': 1, 'Name': 'Good'}",2018-10-09 ,0,38.33,PST,-122.28,PM2.5,Napa,CA
62,95011,31,"{'Number': 1, 'Name': 'Good'}",2018-10-10 ,0,37.33,PST,-121.9,OZONE,San Jose,CA
63,95011,15,"{'Number': 1, 'Name': 'Good'}",2018-10-10 ,0,37.33,PST,-121.9,PM2.5,San Jose,CA
64,95106,39,"{'Number': 1, 'Name': 'Good'}",2018-10-11 ,0,37.33,PST,-121.9,OZONE,San Jose,CA
65,95106,28,"{'Number': 1, 'Name': 'Good'}",2018-10-11 ,0,37.33,PST,-121.9,PM2.5,San Jose,CA
66,94581,39,"{'Number': 1, 'Name': 'Good'}",2018-10-12 ,0,38.33,PST,-122.28,OZONE,Napa,CA
67,94304,26,"{'Number': 1, 'Name': 'Good'}",2018-10-13 ,0,37.48,PST,-122.22,OZONE,Redwood City,CA
68,94304,39,"{'Number': 1, 'Name': 'Good'}",2018-10-13 ,0,37.48,PST,-122.22,PM2.5,Redwood City,CA
69,94597,30,"{'Number': 1, 'Name': 'Good'}",2018-10-14 ,0,37.97,PST,-122.03,OZONE,Concord,CA
70,94597,22,"{'Number': 1, 'Name': 'Good'}",2018-10-14 ,0,37.97,PST,-122.03,PM2.5,Concord,CA
71,95109,41,"{'Number': 1, 'Name': 'Good'}",2018-10-15 ,0,37.33,PST,-121.9,OZONE,San Jose,CA
72,95109,25,"{'Number': 1, 'Name': 'Good'}",2018-10-15 ,0,37.33,PST,-121.9,PM2.5,San Jose,CA
73,95391,40,"{'Number': 1, 'Name': 'Good'}",2018-10-15 ,0,37.68,PST,-121.77,OZONE,Livermore,CA
74,95391,16,"{'Number': 1, 'Name': 'Good'}",2018-10-15 ,0,37.68,PST,-121.77,PM2.5,Livermore,CA
75,94038,28,"{'Number': 1, 'Name': 'Good'}",2018-10-09 ,0,37.75,PST,-122.43,OZONE,San Francisco,CA
76,94038,27,"{'Number': 1, 'Name': 'Good'}",2018-10-09 ,0,37.75,PST,-122.43,PM2.5,San Francisco,CA
77,95035,31,"{'Number': 1, 'Name': 'Good'}",2018-10-10 ,0,37.33,PST,-121.9,OZONE,San Jose,CA
78,95035,15,"{'Number': 1, 'Name': 'Good'}",2018-10-10 ,0,37.33,PST,-121.9,PM2.5,San Jose,CA
79,95113,39,"{'Number': 1, 'Name': 'Good'}",2018-10-11 ,0,37.33,PST,-121.9,OZONE,San Jose,CA
80,95113,28,"{'Number': 1, 'Name': 'Good'}",2018-10-11 ,0,37.33,PST,-121.9,PM2.5,San Jose,CA
81,94021,33,"{'Number': 1, 'Name': 'Good'}",2018-10-12 ,0,37.48,PST,-122.22,OZONE,Redwood City,CA
82,94021,33,"{'Number': 1, 'Name': 'Good'}",2018-10-12 ,0,37.48,PST,-122.22,PM2.5,Redwood City,CA
83,94596,31,"{'Number': 1, 'Name': 'Good'}",2018-10-13 ,0,37.97,PST,-122.03,OZONE,Concord,CA
84,94596,19,"{'Number': 1, 'Name': 'Good'}",2018-10-13 ,0,37.97,PST,-122.03,PM2.5,Concord,CA
85,94510,40,"{'Number': 1, 'Name': 'Good'}",2018-10-14 ,0,38.25,PST,-122.04,OZONE,Fairfield,CA
86,95476,41,"{'Number': 1, 'Name': 'Good'}",2018-10-15 ,0,38.45,PST,-122.7,OZONE,Santa Rosa,CA
87,95476,4,"{'Number': 1, 'Name': 'Good'}",2018-10-15 ,0,38.45,PST,-122.7,PM2.5,Santa Rosa,CA
88,95487,45,"{'Number': 1, 'Name': 'Good'}",2018-10-15 ,0,38.33,PST,-122.28,OZONE,Napa,CA
89,95487,13,"{'Number': 1, 'Name': 'Good'}",2018-10-15 ,0,38.33,PST,-122.28,PM2.5,Napa,CA
90,95117,35,"{'Number': 1, 'Name': 'Good'}",2018-10-09 ,0,37.33,PST,-121.9,OZONE,San Jose,CA
91,95117,43,"{'Number': 1, 'Name': 'Good'}",2018-10-09 ,0,37.33,PST,-121.9,PM2.5,San Jose,CA
92,94536,31,"{'Number': 1, 'Name': 'Good'}",2018-10-10 ,0,37.55,PST,-122.03,OZONE,Fremont,CA
93,94536,19,"{'Number': 1, 'Name': 'Good'}",2018-10-10 ,0,37.55,PST,-122.03,PM2.5,Fremont,CA
94,94566,34,"{'Number': 1, 'Name': 'Good'}",2018-10-11 ,0,37.68,PST,-121.77,OZONE,Livermore,CA
95,94566,35,"{'Number': 1, 'Name': 'Good'}",2018-10-11 ,0,37.68,PST,-121.77,PM2.5,Livermore,CA
96,94065,33,"{'Number': 1, 'Name': 'Good'}",2018-10-12 ,0,37.48,PST,-122.22,OZONE,Redwood City,CA
97,94065,33,"{'Number': 1, 'Name': 'Good'}",2018-10-12 ,0,37.48,PST,-122.22,PM2.5,Redwood City,CA
98,94946,28,"{'Number': 1, 'Name': 'Good'}",2018-10-13 ,0,37.97,PST,-122.52,OZONE,San Rafael,CA
99,94946,39,"{'Number': 1, 'Name': 'Good'}",2018-10-13 ,0,37.97,PST,-122.52,PM2.5,San Rafael,CA
100,94927,29,"{'Number': 1, 'Name': 'Good'}",2018-10-14 ,0,38.45,PST,-122.7,OZONE,Santa Rosa,CA
101,94575,34,"{'Number': 1, 'Name': 'Good'}",2018-10-15 ,0,37.8,PST,-122.27,OZONE,Oakland,CA
102,94575,19,"{'Number': 1, 'Name': 'Good'}",2018-10-15 ,0,37.8,PST,-122.27,PM2.5,Oakland,CA
103,95071,41,"{'Number': 1, 'Name': 'Good'}",2018-10-15 ,0,37.33,PST,-121.9,OZONE,San Jose,CA
104,95071,25,"{'Number': 1, 'Name': 'Good'}",2018-10-15 ,0,37.33,PST,-121.9,PM2.5,San Jose,CA
105,94103,28,"{'Number': 1, 'Name': 'Good'}",2018-10-09 ,0,37.75,PST,-122.43,OZONE,San Francisco,CA
106,94103,27,"{'Number': 1, 'Name': 'Good'}",2018-10-09 ,0,37.75,PST,-122.43,PM2.5,San Francisco,CA
107,94942,27,"{'Number': 1, 'Name': 'Good'}",2018-10-10 ,0,37.97,PST,-122.52,OZONE,San Rafael,CA
108,94942,33,"{'Number': 1, 'Name': 'Good'}",2018-10-10 ,0,37.97,PST,-122.52,PM2.5,San Rafael,CA
109,94801,28,"{'Number': 1, 'Name': 'Good'}",2018-10-11 ,0,37.97,PST,-122.52,OZONE,San Rafael,CA
110,94801,32,"{'Number': 1, 'Name': 'Good'}",2018-10-11 ,0,37.97,PST,-122.52,PM2.5,San Rafael,CA
111,94703,25,"{'Number': 1, 'Name': 'Good'}",2018-10-12 ,0,37.8,PST,-122.27,OZONE,Oakland,CA
112,94703,44,"{'Number': 1, 'Name': 'Good'}",2018-10-12 ,0,37.8,PST,-122.27,PM2.5,Oakland,CA
113,94710,28,"{'Number': 1, 'Name': 'Good'}",2018-10-13 ,0,37.8,PST,-122.27,OZONE,Oakland,CA
114,94710,54,"{'Number': 2, 'Name': 'Moderate'}",2018-10-13 ,0,37.8,PST,-122.27,PM2.5,Oakland,CA
115,94564,31,"{'Number': 1, 'Name': 'Good'}",2018-10-14 ,0,37.97,PST,-122.52,OZONE,San Rafael,CA
116,94564,38,"{'Number': 1, 'Name': 'Good'}",2018-10-14 ,0,37.97,PST,-122.52,PM2.5,San Rafael,CA
117,94971,41,"{'Number': 1, 'Name': 'Good'}",2018-10-15 ,0,37.97,PST,-122.52,OZONE,San Rafael,CA
118,94971,19,"{'Number': 1, 'Name': 'Good'}",2018-10-15 ,0,37.97,PST,-122.52,PM2.5,San Rafael,CA
119,94002,38,"{'Number': 1, 'Name': 'Good'}",2018-10-15 ,0,37.48,PST,-122.22,OZONE,Redwood City,CA
120,94002,20,"{'Number': 1, 'Name': 'Good'}",2018-10-15 ,0,37.48,PST,-122.22,PM2.5,Redwood City,CA
121,94609,24,"{'Number': 1, 'Name': 'Good'}",2018-10-09 ,0,37.8,PST,-122.27,OZONE,Oakland,CA
122,94609,46,"{'Number': 1, 'Name': 'Good'}",2018-10-09 ,0,37.8,PST,-122.27,PM2.5,Oakland,CA
123,95403,30,"{'Number': 1, 'Name': 'Good'}",2018-10-10 ,0,38.45,PST,-122.7,OZONE,Santa Rosa,CA
124,95403,10,"{'Number': 1, 'Name': 'Good'}",2018-10-10 ,0,38.45,PST,-122.7,PM2.5,Santa Rosa,CA
125,95112,39,"{'Number': 1, 'Name': 'Good'}",2018-10-11 ,0,37.33,PST,-121.9,OZONE,San Jose,CA
126,95112,28,"{'Number': 1, 'Name': 'Good'}",2018-10-11 ,0,37.33,PST,-121.9,PM2.5,San Jose,CA
127,94503,39,"{'Number': 1, 'Name': 'Good'}",2018-10-12 ,0,38.33,PST,-122.28,OZONE,Napa,CA
128,94305,26,"{'Number': 1, 'Name': 'Good'}",2018-10-13 ,0,37.48,PST,-122.22,OZONE,Redwood City,CA
129,94305,39,"{'Number': 1, 'Name': 'Good'}",2018-10-13 ,0,37.48,PST,-122.22,PM2.5,Redwood City,CA
130,95052,41,"{'Number': 1, 'Name': 'Good'}",2018-10-14 ,0,37.33,PST,-121.9,OZONE,San Jose,CA
131,95052,32,"{'Number': 1, 'Name': 'Good'}",2018-10-14 ,0,37.33,PST,-121.9,PM2.5,San Jose,CA
132,94085,41,"{'Number': 1, 'Name': 'Good'}",2018-10-15 ,0,37.33,PST,-121.9,OZONE,San Jose,CA
133,94085,25,"{'Number': 1, 'Name': 'Good'}",2018-10-15 ,0,37.33,PST,-121.9,PM2.5,San Jose,CA
134,94599,45,"{'Number': 1, 'Name': 'Good'}",2018-10-15 ,0,38.33,PST,-122.28,OZONE,Napa,CA
135,94599,13,"{'Number': 1, 'Name': 'Good'}",2018-10-15 ,0,38.33,PST,-122.28,PM2.5,Napa,CA
136,94548,35,"{'Number': 1, 'Name': 'Good'}",2018-10-09 ,0,38.2183,PST,-121.77,PM2.5,Rio Vista,CA
137,94404,26,"{'Number': 1, 'Name': 'Good'}",2018-10-10 ,0,37.48,PST,-122.22,OZONE,Redwood City,CA
138,94404,19,"{'Number': 1, 'Name': 'Good'}",2018-10-10 ,0,37.48,PST,-122.22,PM2.5,Redwood City,CA
139,94402,28,"{'Number': 1, 'Name': 'Good'}",2018-10-11 ,0,37.48,PST,-122.22,OZONE,Redwood City,CA
140,94402,34,"{'Number': 1, 'Name': 'Good'}",2018-10-11 ,0,37.48,PST,-122.22,PM2.5,Redwood City,CA
141,94569,32,"{'Number': 1, 'Name': 'Good'}",2018-10-12 ,0,37.97,PST,-122.03,OZONE,Concord,CA
142,94569,20,"{'Number': 1, 'Name': 'Good'}",2018-10-12 ,0,37.97,PST,-122.03,PM2.5,Concord,CA
143,94940,28,"{'Number': 1, 'Name': 'Good'}",2018-10-13 ,0,37.97,PST,-122.52,OZONE,San Rafael,CA
144,94940,39,"{'Number': 1, 'Name': 'Good'}",2018-10-13 ,0,37.97,PST,-122.52,PM2.5,San Rafael,CA
145,94543,36,"{'Number': 1, 'Name': 'Good'}",2018-10-14 ,0,37.55,PST,-122.03,OZONE,Fremont,CA
146,94543,48,"{'Number': 1, 'Name': 'Good'}",2018-10-14 ,0,37.55,PST,-122.03,PM2.5,Fremont,CA
147,94964,41,"{'Number': 1, 'Name': 'Good'}",2018-10-15 ,0,37.97,PST,-122.52,OZONE,San Rafael,CA
148,94964,19,"{'Number': 1, 'Name': 'Good'}",2018-10-15 ,0,37.97,PST,-122.52,PM2.5,San Rafael,CA
149,94544,39,"{'Number': 1, 'Name': 'Good'}",2018-10-15 ,0,37.55,PST,-122.03,OZONE,Fremont,CA
150,94544,20,"{'Number': 1, 'Name': 'Good'}",2018-10-15 ,0,37.55,PST,-122.03,PM2.5,Fremont,CA
151,94595,26,"{'Number': 1, 'Name': 'Good'}",2018-10-09 ,0,37.97,PST,-122.03,OZONE,Concord,CA
152,94595,16,"{'Number': 1, 'Name': 'Good'}",2018-10-09 ,0,37.97,PST,-122.03,PM2.5,Concord,CA
153,94528,26,"{'Number': 1, 'Name': 'Good'}",2018-10-11 ,0,37.97,PST,-122.03,OZONE,Concord,CA
154,94528,22,"{'Number': 1, 'Name': 'Good'}",2018-10-11 ,0,37.97,PST,-122.03,PM2.5,Concord,CA
155,94525,32,"{'Number': 1, 'Name': 'Good'}",2018-10-12 ,0,37.97,PST,-122.03,OZONE,Concord,CA
156,94525,20,"{'Number': 1, 'Name': 'Good'}",2018-10-12 ,0,37.97,PST,-122.03,PM2.5,Concord,CA
157,94503,36,"{'Number': 1, 'Name': 'Good'}",2018-10-13 ,0,38.33,PST,-122.28,OZONE,Napa,CA
158,94503,32,"{'Number': 1, 'Name': 'Good'}",2018-10-13 ,0,38.33,PST,-122.28,PM2.5,Napa,CA
159,94119,31,"{'Number': 1, 'Name': 'Good'}",2018-10-14 ,0,37.75,PST,-122.43,OZONE,San Francisco,CA
160,94119,48,"{'Number': 1, 'Name': 'Good'}",2018-10-14 ,0,37.75,PST,-122.43,PM2.5,San Francisco,CA
161,94143,38,"{'Number': 1, 'Name': 'Good'}",2018-10-15 ,0,37.75,PST,-122.43,OZONE,San Francisco,CA
162,94143,30,"{'Number': 1, 'Name': 'Good'}",2018-10-15 ,0,37.75,PST,-122.43,PM2.5,San Francisco,CA
163,94945,41,"{'Number': 1, 'Name': 'Good'}",2018-10-15 ,0,37.97,PST,-122.52,OZONE,San Rafael,CA
164,94945,19,"{'Number': 1, 'Name': 'Good'}",2018-10-15 ,0,37.97,PST,-122.52,PM2.5,San Rafael,CA
165,95101,35,"{'Number': 1, 'Name': 'Good'}",2018-10-09 ,0,37.33,PST,-121.9,OZONE,San Jose,CA
166,95101,43,"{'Number': 1, 'Name': 'Good'}",2018-10-09 ,0,37.33,PST,-121.9,PM2.5,San Jose,CA
167,95690,37,"{'Number': 1, 'Name': 'Good'}",2018-10-10 ,0,38.4086,PST,-121.3733,OZONE,Elk Grove,CA
168,95690,38,"{'Number': 1, 'Name': 'Good'}",2018-10-10 ,0,38.4086,PST,-121.3733,PM2.5,Elk Grove,CA
169,95480,23,"{'Number': 1, 'Name': 'Good'}",2018-10-11 ,0,38.9088,PST,-123.6931,OZONE,Point Arena,CA
170,95480,11,"{'Number': 1, 'Name': 'Good'}",2018-10-11 ,0,38.9088,PST,-123.6931,PM10,Point Arena,CA
171,94044,27,"{'Number': 1, 'Name': 'Good'}",2018-10-12 ,0,37.75,PST,-122.43,OZONE,San Francisco,CA
172,94044,29,"{'Number': 1, 'Name': 'Good'}",2018-10-12 ,0,37.75,PST,-122.43,PM2.5,San Francisco,CA
173,95688,43,"{'Number': 1, 'Name': 'Good'}",2018-10-13 ,0,38.3525,PST,-121.9617,OZONE,Vacaville,CA
174,95688,16,"{'Number': 1, 'Name': 'Good'}",2018-10-13 ,0,38.3525,PST,-121.9617,PM2.5,Vacaville,CA
175,95108,41,"{'Number': 1, 'Name': 'Good'}",2018-10-14 ,0,37.33,PST,-121.9,OZONE,San Jose,CA
176,95108,32,"{'Number': 1, 'Name': 'Good'}",2018-10-14 ,0,37.33,PST,-121.9,PM2.5,San Jose,CA
177,94109,38,"{'Number': 1, 'Name': 'Good'}",2018-10-15 ,0,37.75,PST,-122.43,OZONE,San Francisco,CA
178,94109,30,"{'Number': 1, 'Name': 'Good'}",2018-10-15 ,0,37.75,PST,-122.43,PM2.5,San Francisco,CA
179,94568,40,"{'Number': 1, 'Name': 'Good'}",2018-10-15 ,0,37.68,PST,-121.77,OZONE,Livermore,CA
180,94568,16,"{'Number': 1, 'Name': 'Good'}",2018-10-15 ,0,37.68,PST,-121.77,PM2.5,Livermore,CA
181,94612,24,"{'Number': 1, 'Name': 'Good'}",2018-10-09 ,0,37.8,PST,-122.27,OZONE,Oakland,CA
182,94612,46,"{'Number': 1, 'Name': 'Good'}",2018-10-09 ,0,37.8,PST,-122.27,PM2.5,Oakland,CA
183,95618,33,"{'Number': 1, 'Name': 'Good'}",2018-10-10 ,0,38.5448,PST,-121.7411,OZONE,Davis,CA
184,95618,22,"{'Number': 1, 'Name': 'Good'}",2018-10-10 ,0,38.5448,PST,-121.7411,PM2.5,Davis,CA
185,94570,27,"{'Number': 1, 'Name': 'Good'}",2018-10-11 ,0,37.8,PST,-122.27,OZONE,Oakland,CA
186,94570,49,"{'Number': 1, 'Name': 'Good'}",2018-10-11 ,0,37.8,PST,-122.27,PM2.5,Oakland,CA
187,94104,27,"{'Number': 1, 'Name': 'Good'}",2018-10-12 ,0,37.75,PST,-122.43,OZONE,San Francisco,CA
188,94104,29,"{'Number': 1, 'Name': 'Good'}",2018-10-12 ,0,37.75,PST,-122.43,PM2.5,San Francisco,CA
189,95119,41,"{'Number': 1, 'Name': 'Good'}",2018-10-14 ,0,37.33,PST,-121.9,OZONE,San Jose,CA
190,95119,32,"{'Number': 1, 'Name': 'Good'}",2018-10-14 ,0,37.33,PST,-121.9,PM2.5,San Jose,CA
191,95419,41,"{'Number': 1, 'Name': 'Good'}",2018-10-15 ,0,38.45,PST,-122.7,OZONE,Santa Rosa,CA
192,95419,4,"{'Number': 1, 'Name': 'Good'}",2018-10-15 ,0,38.45,PST,-122.7,PM2.5,Santa Rosa,CA
193,94574,41,"{'Number': 1, 'Name': 'Good'}",2018-10-15 ,0,38.45,PST,-122.7,OZONE,Santa Rosa,CA
194,94574,4,"{'Number': 1, 'Name': 'Good'}",2018-10-15 ,0,38.45,PST,-122.7,PM2.5,Santa Rosa,CA
195,95158,35,"{'Number': 1, 'Name': 'Good'}",2018-10-09 ,0,37.33,PST,-121.9,OZONE,San Jose,CA
196,95158,43,"{'Number': 1, 'Name': 'Good'}",2018-10-09 ,0,37.33,PST,-121.9,PM2.5,San Jose,CA
197,94966,27,"{'Number': 1, 'Name': 'Good'}",2018-10-10 ,0,37.97,PST,-122.52,OZONE,San Rafael,CA
198,94966,33,"{'Number': 1, 'Name': 'Good'}",2018-10-10 ,0,37.97,PST,-122.52,PM2.5,San Rafael,CA
199,94024,39,"{'Number': 1, 'Name': 'Good'}",2018-10-11 ,0,37.33,PST,-121.9,OZONE,San Jose,CA
200,94024,28,"{'Number': 1, 'Name': 'Good'}",2018-10-11 ,0,37.33,PST,-121.9,PM2.5,San Jose,CA
201,94509,41,"{'Number': 1, 'Name': 'Good'}",2018-10-12 ,0,38.25,PST,-122.04,OZONE,Fairfield,CA
202,95161,38,"{'Number': 1, 'Name': 'Good'}",2018-10-13 ,0,37.33,PST,-121.9,OZONE,San Jose,CA
203,95161,23,"{'Number': 1, 'Name': 'Good'}",2018-10-13 ,0,37.33,PST,-121.9,PM2.5,San Jose,CA
204,95135,41,"{'Number': 1, 'Name': 'Good'}",2018-10-14 ,0,37.33,PST,-121.9,OZONE,San Jose,CA
205,95135,32,"{'Number': 1, 'Name': 'Good'}",2018-10-14 ,0,37.33,PST,-121.9,PM2.5,San Jose,CA
206,94970,41,"{'Number': 1, 'Name': 'Good'}",2018-10-15 ,0,37.97,PST,-122.52,OZONE,San Rafael,CA
207,94970,19,"{'Number': 1, 'Name': 'Good'}",2018-10-15 ,0,37.97,PST,-122.52,PM2.5,San Rafael,CA
208,94571,15,"{'Number': 1, 'Name': 'Good'}",2018-10-15 ,0,38.2183,PST,-121.77,PM2.5,Rio Vista,CA
209,94061,24,"{'Number': 1, 'Name': 'Good'}",2018-10-09 ,0,37.48,PST,-122.22,OZONE,Redwood City,CA
210,94061,29,"{'Number': 1, 'Name': 'Good'}",2018-10-09 ,0,37.48,PST,-122.22,PM2.5,Redwood City,CA
211,95020,31,"{'Number': 1, 'Name': 'Good'}",2018-10-10 ,0,37.33,PST,-121.9,OZONE,San Jose,CA
212,95020,15,"{'Number': 1, 'Name': 'Good'}",2018-10-10 ,0,37.33,PST,-121.9,PM2.5,San Jose,CA
213,94588,34,"{'Number': 1, 'Name': 'Good'}",2018-10-11 ,0,37.68,PST,-121.77,OZONE,Livermore,CA
214,94588,35,"{'Number': 1, 'Name': 'Good'}",2018-10-11 ,0,37.68,PST,-121.77,PM2.5,Livermore,CA
215,94302,33,"{'Number': 1, 'Name': 'Good'}",2018-10-12 ,0,37.48,PST,-122.22,OZONE,Redwood City,CA
216,94302,33,"{'Number': 1, 'Name': 'Good'}",2018-10-12 ,0,37.48,PST,-122.22,PM2.5,Redwood City,CA
217,95486,29,"{'Number': 1, 'Name': 'Good'}",2018-10-14 ,0,38.45,PST,-122.7,OZONE,Santa Rosa,CA
218,94558,45,"{'Number': 1, 'Name': 'Good'}",2018-10-15 ,0,38.33,PST,-122.28,OZONE,Napa,CA
219,94558,13,"{'Number': 1, 'Name': 'Good'}",2018-10-15 ,0,38.33,PST,-122.28,PM2.5,Napa,CA
220,94706,34,"{'Number': 1, 'Name': 'Good'}",2018-10-15 ,0,37.8,PST,-122.27,OZONE,Oakland,CA
221,94706,19,"{'Number': 1, 'Name': 'Good'}",2018-10-15 ,0,37.8,PST,-122.27,PM2.5,Oakland,CA
222,95124,35,"{'Number': 1, 'Name': 'Good'}",2018-10-09 ,0,37.33,PST,-121.9,OZONE,San Jose,CA
223,95124,43,"{'Number': 1, 'Name': 'Good'}",2018-10-09 ,0,37.33,PST,-121.9,PM2.5,San Jose,CA
224,94803,27,"{'Number': 1, 'Name': 'Good'}",2018-10-10 ,0,37.8,PST,-122.27,OZONE,Oakland,CA
225,94803,45,"{'Number': 1, 'Name': 'Good'}",2018-10-10 ,0,37.8,PST,-122.27,PM2.5,Oakland,CA
226,94115,31,"{'Number': 1, 'Name': 'Good'}",2018-10-11 ,0,37.75,PST,-122.43,OZONE,San Francisco,CA
227,94115,31,"{'Number': 1, 'Name': 'Good'}",2018-10-11 ,0,37.75,PST,-122.43,PM2.5,San Francisco,CA
228,94083,27,"{'Number': 1, 'Name': 'Good'}",2018-10-12 ,0,37.75,PST,-122.43,OZONE,San Francisco,CA
229,94083,29,"{'Number': 1, 'Name': 'Good'}",2018-10-12 ,0,37.75,PST,-122.43,PM2.5,San Francisco,CA
230,94602,28,"{'Number': 1, 'Name': 'Good'}",2018-10-13 ,0,37.8,PST,-122.27,OZONE,Oakland,CA
231,94602,54,"{'Number': 2, 'Name': 'Moderate'}",2018-10-13 ,0,37.8,PST,-122.27,PM2.5,Oakland,CA
232,95151,41,"{'Number': 1, 'Name': 'Good'}",2018-10-14 ,0,37.33,PST,-121.9,OZONE,San Jose,CA
233,95151,32,"{'Number': 1, 'Name': 'Good'}",2018-10-14 ,0,37.33,PST,-121.9,PM2.5,San Jose,CA
234,95013,41,"{'Number': 1, 'Name': 'Good'}",2018-10-15 ,0,37.33,PST,-121.9,OZONE,San Jose,CA
235,95013,25,"{'Number': 1, 'Name': 'Good'}",2018-10-15 ,0,37.33,PST,-121.9,PM2.5,San Jose,CA
236,94610,34,"{'Number': 1, 'Name': 'Good'}",2018-10-15 ,0,37.8,PST,-122.27,OZONE,Oakland,CA
237,94610,19,"{'Number': 1, 'Name': 'Good'}",2018-10-15 ,0,37.8,PST,-122.27,PM2.5,Oakland,CA
238,95033,35,"{'Number': 1, 'Name': 'Good'}",2018-10-09 ,0,37.33,PST,-121.9,OZONE,San Jose,CA
239,95033,43,"{'Number': 1, 'Name': 'Good'}",2018-10-09 ,0,37.33,PST,-121.9,PM2.5,San Jose,CA
240,94524,22,"{'Number': 1, 'Name': 'Good'}",2018-10-10 ,0,37.97,PST,-122.03,OZONE,Concord,CA
241,94524,21,"{'Number': 1, 'Name': 'Good'}",2018-10-10 ,0,37.97,PST,-122.03,PM2.5,Concord,CA
242,94129,31,"{'Number': 1, 'Name': 'Good'}",2018-10-11 ,0,37.75,PST,-122.43,OZONE,San Francisco,CA
243,94129,31,"{'Number': 1, 'Name': 'Good'}",2018-10-11 ,0,37.75,PST,-122.43,PM2.5,San Francisco,CA
244,94963,34,"{'Number': 1, 'Name': 'Good'}",2018-10-12 ,0,37.97,PST,-122.52,OZONE,San Rafael,CA
245,94963,26,"{'Number': 1, 'Name': 'Good'}",2018-10-12 ,0,37.97,PST,-122.52,PM2.5,San Rafael,CA
246,94125,31,"{'Number': 1, 'Name': 'Good'}",2018-10-14 ,0,37.75,PST,-122.43,OZONE,San Francisco,CA
247,94125,48,"{'Number': 1, 'Name': 'Good'}",2018-10-14 ,0,37.75,PST,-122.43,PM2.5,San Francisco,CA
248,94039,38,"{'Number': 1, 'Name': 'Good'}",2018-10-15 ,0,37.48,PST,-122.22,OZONE,Redwood City,CA
249,94039,20,"{'Number': 1, 'Name': 'Good'}",2018-10-15 ,0,37.48,PST,-122.22,PM2.5,Redwood City,CA
250,94615,34,"{'Number': 1, 'Name': 'Good'}",2018-10-15 ,0,37.8,PST,-122.27,OZONE,Oakland,CA
251,94615,19,"{'Number': 1, 'Name': 'Good'}",2018-10-15 ,0,37.8,PST,-122.27,PM2.5,Oakland,CA
252,94590,40,"{'Number': 1, 'Name': 'Good'}",2018-10-09 ,0,38.25,PST,-122.04,OZONE,Fairfield,CA
253,94042,26,"{'Number': 1, 'Name': 'Good'}",2018-10-10 ,0,37.48,PST,-122.22,OZONE,Redwood City,CA
254,94042,19,"{'Number': 1, 'Name': 'Good'}",2018-10-10 ,0,37.48,PST,-122.22,PM2.5,Redwood City,CA
255,94558,35,"{'Number': 1, 'Name': 'Good'}",2018-10-11 ,0,38.33,PST,-122.28,OZONE,Napa,CA
256,94028,33,"{'Number': 1, 'Name': 'Good'}",2018-10-12 ,0,37.48,PST,-122.22,OZONE,Redwood City,CA
257,94028,33,"{'Number': 1, 'Name': 'Good'}",2018-10-12 ,0,37.48,PST,-122.22,PM2.5,Redwood City,CA
258,94526,31,"{'Number': 1, 'Name': 'Good'}",2018-10-13 ,0,37.97,PST,-122.03,OZONE,Concord,CA
259,94526,19,"{'Number': 1, 'Name': 'Good'}",2018-10-13 ,0,37.97,PST,-122.03,PM2.5,Concord,CA
260,94542,36,"{'Number': 1, 'Name': 'Good'}",2018-10-14 ,0,37.55,PST,-122.03,OZONE,Fremont,CA
261,94542,48,"{'Number': 1, 'Name': 'Good'}",2018-10-14 ,0,37.55,PST,-122.03,PM2.5,Fremont,CA
262,95037,41,"{'Number': 1, 'Name': 'Good'}",2018-10-15 ,0,37.33,PST,-121.9,OZONE,San Jose,CA
263,95037,25,"{'Number': 1, 'Name': 'Good'}",2018-10-15 ,0,37.33,PST,-121.9,PM2.5,San Jose,CA
264,94978,41,"{'Number': 1, 'Name': 'Good'}",2018-10-15 ,0,37.97,PST,-122.52,OZONE,San Rafael,CA
265,94978,19,"{'Number': 1, 'Name': 'Good'}",2018-10-15 ,0,37.97,PST,-122.52,PM2.5,San Rafael,CA
266,94550,32,"{'Number': 1, 'Name': 'Good'}",2018-10-09 ,0,37.68,PST,-121.77,OZONE,Livermore,CA
267,94550,24,"{'Number': 1, 'Name': 'Good'}",2018-10-09 ,0,37.68,PST,-121.77,PM2.5,Livermore,CA
268,94706,27,"{'Number': 1, 'Name': 'Good'}",2018-10-10 ,0,37.8,PST,-122.27,OZONE,Oakland,CA
269,94706,45,"{'Number': 1, 'Name': 'Good'}",2018-10-10 ,0,37.8,PST,-122.27,PM2.5,Oakland,CA
270,95123,39,"{'Number': 1, 'Name': 'Good'}",2018-10-11 ,0,37.33,PST,-121.9,OZONE,San Jose,CA
271,95123,28,"{'Number': 1, 'Name': 'Good'}",2018-10-11 ,0,37.33,PST,-121.9,PM2.5,San Jose,CA
272,94591,41,"{'Number': 1, 'Name': 'Good'}",2018-10-12 ,0,38.25,PST,-122.04,OZONE,Fairfield,CA
273,94551,40,"{'Number': 1, 'Name': 'Good'}",2018-10-13 ,0,37.68,PST,-121.77,OZONE,Livermore,CA
274,94551,44,"{'Number': 1, 'Name': 'Good'}",2018-10-13 ,0,37.68,PST,-121.77,PM2.5,Livermore,CA
275,94915,31,"{'Number': 1, 'Name': 'Good'}",2018-10-14 ,0,37.97,PST,-122.52,OZONE,San Rafael,CA
276,94915,38,"{'Number': 1, 'Name': 'Good'}",2018-10-14 ,0,37.97,PST,-122.52,PM2.5,San Rafael,CA
277,94188,38,"{'Number': 1, 'Name': 'Good'}",2018-10-15 ,0,37.75,PST,-122.43,OZONE,San Francisco,CA
278,94188,30,"{'Number': 1, 'Name': 'Good'}",2018-10-15 ,0,37.75,PST,-122.43,PM2.5,San Francisco,CA
279,94147,38,"{'Number': 1, 'Name': 'Good'}",2018-10-15 ,0,37.75,PST,-122.43,OZONE,San Francisco,CA
280,94147,30,"{'Number': 1, 'Name': 'Good'}",2018-10-15 ,0,37.75,PST,-122.43,PM2.5,San Francisco,CA
281,95014,35,"{'Number': 1, 'Name': 'Good'}",2018-10-09 ,0,37.33,PST,-121.9,OZONE,San Jose,CA
282,95014,43,"{'Number': 1, 'Name': 'Good'}",2018-10-09 ,0,37.33,PST,-121.9,PM2.5,San Jose,CA
283,94110,33,"{'Number': 1, 'Name': 'Good'}",2018-10-10 ,0,37.75,PST,-122.43,PM2.5,San Francisco,CA
284,94043,28,"{'Number': 1, 'Name': 'Good'}",2018-10-11 ,0,37.48,PST,-122.22,OZONE,Redwood City,CA
285,94043,34,"{'Number': 1, 'Name': 'Good'}",2018-10-11 ,0,37.48,PST,-122.22,PM2.5,Redwood City,CA
286,94541,33,"{'Number': 1, 'Name': 'Good'}",2018-10-12 ,0,37.55,PST,-122.03,OZONE,Fremont,CA
287,94541,33,"{'Number': 1, 'Name': 'Good'}",2018-10-12 ,0,37.55,PST,-122.03,PM2.5,Fremont,CA
288,94562,36,"{'Number': 1, 'Name': 'Good'}",2018-10-13 ,0,38.33,PST,-122.28,OZONE,Napa,CA
289,94562,32,"{'Number': 1, 'Name': 'Good'}",2018-10-13 ,0,38.33,PST,-122.28,PM2.5,Napa,CA
290,94538,36,"{'Number': 1, 'Name': 'Good'}",2018-10-14 ,0,37.55,PST,-122.03,OZONE,Fremont,CA
291,94538,48,"{'Number': 1, 'Name': 'Good'}",2018-10-14 ,0,37.55,PST,-122.03,PM2.5,Fremont,CA
292,94583,40,"{'Number': 1, 'Name': 'Good'}",2018-10-15 ,0,37.68,PST,-121.77,OZONE,Livermore,CA
293,94583,16,"{'Number': 1, 'Name': 'Good'}",2018-10-15 ,0,37.68,PST,-121.77,PM2.5,Livermore,CA
294,95172,41,"{'Number': 1, 'Name': 'Good'}",2018-10-15 ,0,37.33,PST,-121.9,OZONE,San Jose,CA
295,95172,25,"{'Number': 1, 'Name': 'Good'}",2018-10-15 ,0,37.33,PST,-121.9,PM2.5,San Jose,CA
296,94126,28,"{'Number': 1, 'Name': 'Good'}",2018-10-09 ,0,37.75,PST,-122.43,OZONE,San Francisco,CA
297,94126,27,"{'Number': 1, 'Name': 'Good'}",2018-10-09 ,0,37.75,PST,-122.43,PM2.5,San Francisco,CA
298,94568,34,"{'Number': 1, 'Name': 'Good'}",2018-10-11 ,0,37.68,PST,-121.77,OZONE,Livermore,CA
299,94568,35,"{'Number': 1, 'Name': 'Good'}",2018-10-11 ,0,37.68,PST,-121.77,PM2.5,Livermore,CA
300,94589,41,"{'Number': 1, 'Name': 'Good'}",2018-10-12 ,0,38.25,PST,-122.04,OZONE,Fairfield,CA
301,95159,38,"{'Number': 1, 'Name': 'Good'}",2018-10-13 ,0,37.33,PST,-121.9,OZONE,San Jose,CA
302,95159,23,"{'Number': 1, 'Name': 'Good'}",2018-10-13 ,0,37.33,PST,-121.9,PM2.5,San Jose,CA
303,94017,31,"{'Number': 1, 'Name': 'Good'}",2018-10-14 ,0,37.75,PST,-122.43,OZONE,San Francisco,CA
304,94017,48,"{'Number': 1, 'Name': 'Good'}",2018-10-14 ,0,37.75,PST,-122.43,PM2.5,San Francisco,CA
305,95156,41,"{'Number': 1, 'Name': 'Good'}",2018-10-15 ,0,37.33,PST,-121.9,OZONE,San Jose,CA
306,95156,25,"{'Number': 1, 'Name': 'Good'}",2018-10-15 ,0,37.33,PST,-121.9,PM2.5,San Jose,CA
307,94022,41,"{'Number': 1, 'Name': 'Good'}",2018-10-15 ,0,37.33,PST,-121.9,OZONE,San Jose,CA
308,94022,25,"{'Number': 1, 'Name': 'Good'}",2018-10-15 ,0,37.33,PST,-121.9,PM2.5,San Jose,CA
309,94020,24,"{'Number': 1, 'Name': 'Good'}",2018-10-09 ,0,37.48,PST,-122.22,OZONE,Redwood City,CA
310,94020,29,"{'Number': 1, 'Name': 'Good'}",2018-10-09 ,0,37.48,PST,-122.22,PM2.5,Redwood City,CA
311,94707,27,"{'Number': 1, 'Name': 'Good'}",2018-10-10 ,0,37.8,PST,-122.27,OZONE,Oakland,CA
312,94707,45,"{'Number': 1, 'Name': 'Good'}",2018-10-10 ,0,37.8,PST,-122.27,PM2.5,Oakland,CA
313,95402,31,"{'Number': 1, 'Name': 'Good'}",2018-10-12 ,0,38.45,PST,-122.7,OZONE,Santa Rosa,CA
314,95402,2,"{'Number': 1, 'Name': 'Good'}",2018-10-12 ,0,38.45,PST,-122.7,PM2.5,Santa Rosa,CA
315,94929,28,"{'Number': 1, 'Name': 'Good'}",2018-10-13 ,0,37.97,PST,-122.52,OZONE,San Rafael,CA
316,94929,39,"{'Number': 1, 'Name': 'Good'}",2018-10-13 ,0,37.97,PST,-122.52,PM2.5,San Rafael,CA
317,94511,31,"{'Number': 1, 'Name': 'Good'}",2018-10-14 ,0,38.2183,PST,-121.77,PM2.5,Rio Vista,CA
318,95436,41,"{'Number': 1, 'Name': 'Good'}",2018-10-15 ,0,38.45,PST,-122.7,OZONE,Santa Rosa,CA
319,95436,4,"{'Number': 1, 'Name': 'Good'}",2018-10-15 ,0,38.45,PST,-122.7,PM2.5,Santa Rosa,CA
320,95687,42,"{'Number': 1, 'Name': 'Good'}",2018-10-15 ,0,38.3525,PST,-121.9617,OZONE,Vacaville,CA
321,95687,6,"{'Number': 1, 'Name': 'Good'}",2018-10-15 ,0,38.3525,PST,-121.9617,PM2.5,Vacaville,CA
322,95620,39,"{'Number': 1, 'Name': 'Good'}",2018-10-09 ,0,38.3525,PST,-121.9617,OZONE,Vacaville,CA
323,94802,27,"{'Number': 1, 'Name': 'Good'}",2018-10-10 ,0,37.97,PST,-122.52,OZONE,San Rafael,CA
324,94802,33,"{'Number': 1, 'Name': 'Good'}",2018-10-10 ,0,37.97,PST,-122.52,PM2.5,San Rafael,CA
325,94559,35,"{'Number': 1, 'Name': 'Good'}",2018-10-11 ,0,38.33,PST,-122.28,OZONE,Napa,CA
326,94973,34,"{'Number': 1, 'Name': 'Good'}",2018-10-12 ,0,37.97,PST,-122.52,OZONE,San Rafael,CA
327,94973,26,"{'Number': 1, 'Name': 'Good'}",2018-10-12 ,0,37.97,PST,-122.52,PM2.5,San Rafael,CA
328,95051,38,"{'Number': 1, 'Name': 'Good'}",2018-10-13 ,0,37.33,PST,-121.9,OZONE,San Jose,CA
329,95051,23,"{'Number': 1, 'Name': 'Good'}",2018-10-13 ,0,37.33,PST,-121.9,PM2.5,San Jose,CA
330,94515,29,"{'Number': 1, 'Name': 'Good'}",2018-10-14 ,0,38.45,PST,-122.7,OZONE,Santa Rosa,CA
331,95444,41,"{'Number': 1, 'Name': 'Good'}",2018-10-15 ,0,38.45,PST,-122.7,OZONE,Santa Rosa,CA
332,95444,4,"{'Number': 1, 'Name': 'Good'}",2018-10-15 ,0,38.45,PST,-122.7,PM2.5,Santa Rosa,CA
333,94545,39,"{'Number': 1, 'Name': 'Good'}",2018-10-15 ,0,37.55,PST,-122.03,OZONE,Fremont,CA
334,94545,20,"{'Number': 1, 'Name': 'Good'}",2018-10-15 ,0,37.55,PST,-122.03,PM2.5,Fremont,CA
335,94131,28,"{'Number': 1, 'Name': 'Good'}",2018-10-09 ,0,37.75,PST,-122.43,OZONE,San Francisco,CA
336,94131,27,"{'Number': 1, 'Name': 'Good'}",2018-10-09 ,0,37.75,PST,-122.43,PM2.5,San Francisco,CA
337,94613,27,"{'Number': 1, 'Name': 'Good'}",2018-10-10 ,0,37.8,PST,-122.27,OZONE,Oakland,CA
338,94613,45,"{'Number': 1, 'Name': 'Good'}",2018-10-10 ,0,37.8,PST,-122.27,PM2.5,Oakland,CA
339,94539,31,"{'Number': 1, 'Name': 'Good'}",2018-10-11 ,0,37.55,PST,-122.03,OZONE,Fremont,CA
340,94539,34,"{'Number': 1, 'Name': 'Good'}",2018-10-11 ,0,37.55,PST,-122.03,PM2.5,Fremont,CA
341,95030,43,"{'Number': 1, 'Name': 'Good'}",2018-10-12 ,0,37.33,PST,-121.9,OZONE,San Jose,CA
342,95030,25,"{'Number': 1, 'Name': 'Good'}",2018-10-12 ,0,37.33,PST,-121.9,PM2.5,San Jose,CA
343,95191,38,"{'Number': 1, 'Name': 'Good'}",2018-10-13 ,0,37.33,PST,-121.9,OZONE,San Jose,CA
344,95191,23,"{'Number': 1, 'Name': 'Good'}",2018-10-13 ,0,37.33,PST,-121.9,PM2.5,San Jose,CA
345,94576,29,"{'Number': 1, 'Name': 'Good'}",2018-10-14 ,0,38.45,PST,-122.7,OZONE,Santa Rosa,CA
346,94105,38,"{'Number': 1, 'Name': 'Good'}",2018-10-15 ,0,37.75,PST,-122.43,OZONE,San Francisco,CA
347,94105,30,"{'Number': 1, 'Name': 'Good'}",2018-10-15 ,0,37.75,PST,-122.43,PM2.5,San Francisco,CA
348,94087,41,"{'Number': 1, 'Name': 'Good'}",2018-10-15 ,0,37.33,PST,-121.9,OZONE,San Jose,CA
349,94087,25,"{'Number': 1, 'Name': 'Good'}",2018-10-15 ,0,37.33,PST,-121.9,PM2.5,San Jose,CA
350,94550,32,"{'Number': 1, 'Name': 'Good'}",2018-10-09 ,0,37.68,PST,-121.77,OZONE,Livermore,CA
351,94550,24,"{'Number': 1, 'Name': 'Good'}",2018-10-09 ,0,37.68,PST,-121.77,PM2.5,Livermore,CA
352,94011,26,"{'Number': 1, 'Name': 'Good'}",2018-10-10 ,0,37.48,PST,-122.22,OZONE,Redwood City,CA
353,94011,19,"{'Number': 1, 'Name': 'Good'}",2018-10-10 ,0,37.48,PST,-122.22,PM2.5,Redwood City,CA
354,95409,27,"{'Number': 1, 'Name': 'Good'}",2018-10-11 ,0,38.45,PST,-122.7,OZONE,Santa Rosa,CA
355,95409,6,"{'Number': 1, 'Name': 'Good'}",2018-10-11 ,0,38.45,PST,-122.7,PM2.5,Santa Rosa,CA
356,95134,43,"{'Number': 1, 'Name': 'Good'}",2018-10-12 ,0,37.33,PST,-121.9,OZONE,San Jose,CA
357,95134,25,"{'Number': 1, 'Name': 'Good'}",2018-10-12 ,0,37.33,PST,-121.9,PM2.5,San Jose,CA
358,95446,28,"{'Number': 1, 'Name': 'Good'}",2018-10-13 ,0,38.45,PST,-122.7,OZONE,Santa Rosa,CA
359,95446,6,"{'Number': 1, 'Name': 'Good'}",2018-10-13 ,0,38.45,PST,-122.7,PM2.5,Santa Rosa,CA
360,94702,34,"{'Number': 1, 'Name': 'Good'}",2018-10-15 ,0,37.8,PST,-122.27,OZONE,Oakland,CA
361,94702,19,"{'Number': 1, 'Name': 'Good'}",2018-10-15 ,0,37.8,PST,-122.27,PM2.5,Oakland,CA
362,94577,34,"{'Number': 1, 'Name': 'Good'}",2018-10-15 ,0,37.8,PST,-122.27,OZONE,Oakland,CA
363,94577,19,"{'Number': 1, 'Name': 'Good'}",2018-10-15 ,0,37.8,PST,-122.27,PM2.5,Oakland,CA
364,94086,35,"{'Number': 1, 'Name': 'Good'}",2018-10-09 ,0,37.33,PST,-121.9,OZONE,San Jose,CA
365,94086,43,"{'Number': 1, 'Name': 'Good'}",2018-10-09 ,0,37.33,PST,-121.9,PM2.5,San Jose,CA
366,95133,31,"{'Number': 1, 'Name': 'Good'}",2018-10-10 ,0,37.33,PST,-121.9,OZONE,San Jose,CA
367,95133,15,"{'Number': 1, 'Name': 'Good'}",2018-10-10 ,0,37.33,PST,-121.9,PM2.5,San Jose,CA
368,94976,28,"{'Number': 1, 'Name': 'Good'}",2018-10-11 ,0,37.97,PST,-122.52,OZONE,San Rafael,CA
369,94976,32,"{'Number': 1, 'Name': 'Good'}",2018-10-11 ,0,37.97,PST,-122.52,PM2.5,San Rafael,CA
370,95497,31,"{'Number': 1, 'Name': 'Good'}",2018-10-12 ,0,38.9088,PST,-123.6931,OZONE,Point Arena,CA
371,95497,10,"{'Number': 1, 'Name': 'Good'}",2018-10-12 ,0,38.9088,PST,-123.6931,PM10,Point Arena,CA
372,95110,38,"{'Number': 1, 'Name': 'Good'}",2018-10-13 ,0,37.33,PST,-121.9,OZONE,San Jose,CA
373,95110,23,"{'Number': 1, 'Name': 'Good'}",2018-10-13 ,0,37.33,PST,-121.9,PM2.5,San Jose,CA
374,94505,36,"{'Number': 1, 'Name': 'Good'}",2018-10-14 ,0,37.9699,PST,-121.3067,OZONE,Stockton,CA
375,94505,39,"{'Number': 1, 'Name': 'Good'}",2018-10-14 ,0,37.9699,PST,-121.3067,PM2.5,Stockton,CA
376,94720,34,"{'Number': 1, 'Name': 'Good'}",2018-10-15 ,0,37.8,PST,-122.27,OZONE,Oakland,CA
377,94720,19,"{'Number': 1, 'Name': 'Good'}",2018-10-15 ,0,37.8,PST,-122.27,PM2.5,Oakland,CA
378,94401,38,"{'Number': 1, 'Name': 'Good'}",2018-10-15 ,0,37.48,PST,-122.22,OZONE,Redwood City,CA
379,94401,20,"{'Number': 1, 'Name': 'Good'}",2018-10-15 ,0,37.48,PST,-122.22,PM2.5,Redwood City,CA
380,95116,35,"{'Number': 1, 'Name': 'Good'}",2018-10-09 ,0,37.33,PST,-121.9,OZONE,San Jose,CA
381,95116,43,"{'Number': 1, 'Name': 'Good'}",2018-10-09 ,0,37.33,PST,-121.9,PM2.5,San Jose,CA
382,94592,31,"{'Number': 1, 'Name': 'Good'}",2018-10-10 ,0,38.25,PST,-122.04,OZONE,Fairfield,CA
383,94567,27,"{'Number': 1, 'Name': 'Good'}",2018-10-11 ,0,38.45,PST,-122.7,OZONE,Santa Rosa,CA
384,94567,6,"{'Number': 1, 'Name': 'Good'}",2018-10-11 ,0,38.45,PST,-122.7,PM2.5,Santa Rosa,CA
385,94551,36,"{'Number': 1, 'Name': 'Good'}",2018-10-12 ,0,37.68,PST,-121.77,OZONE,Livermore,CA
386,94551,23,"{'Number': 1, 'Name': 'Good'}",2018-10-12 ,0,37.68,PST,-121.77,PM2.5,Livermore,CA
387,94930,28,"{'Number': 1, 'Name': 'Good'}",2018-10-13 ,0,37.97,PST,-122.52,OZONE,San Rafael,CA
388,94930,39,"{'Number': 1, 'Name': 'Good'}",2018-10-13 ,0,37.97,PST,-122.52,PM2.5,San Rafael,CA
389,94535,40,"{'Number': 1, 'Name': 'Good'}",2018-10-14 ,0,38.25,PST,-122.04,OZONE,Fairfield,CA
390,95046,41,"{'Number': 1, 'Name': 'Good'}",2018-10-15 ,0,37.33,PST,-121.9,OZONE,San Jose,CA
391,95046,25,"{'Number': 1, 'Name': 'Good'}",2018-10-15 ,0,37.33,PST,-121.9,PM2.5,San Jose,CA
392,95128,35,"{'Number': 1, 'Name': 'Good'}",2018-10-09 ,0,37.33,PST,-121.9,OZONE,San Jose,CA
393,95128,43,"{'Number': 1, 'Name': 'Good'}",2018-10-09 ,0,37.33,PST,-121.9,PM2.5,San Jose,CA
394,94519,22,"{'Number': 1, 'Name': 'Good'}",2018-10-10 ,0,37.97,PST,-122.03,OZONE,Concord,CA
395,94519,21,"{'Number': 1, 'Name': 'Good'}",2018-10-10 ,0,37.97,PST,-122.03,PM2.5,Concord,CA
396,94574,27,"{'Number': 1, 'Name': 'Good'}",2018-10-11 ,0,38.45,PST,-122.7,OZONE,Santa Rosa,CA
397,94574,6,"{'Number': 1, 'Name': 'Good'}",2018-10-11 ,0,38.45,PST,-122.7,PM2.5,Santa Rosa,CA
398,94552,36,"{'Number': 1, 'Name': 'Good'}",2018-10-12 ,0,37.68,PST,-121.77,OZONE,Livermore,CA
399,94552,23,"{'Number': 1, 'Name': 'Good'}",2018-10-12 ,0,37.68,PST,-121.77,PM2.5,Livermore,CA
400,94965,28,"{'Number': 1, 'Name': 'Good'}",2018-10-13 ,0,37.97,PST,-122.52,OZONE,San Rafael,CA
401,94965,39,"{'Number': 1, 'Name': 'Good'}",2018-10-13 ,0,37.97,PST,-122.52,PM2.5,San Rafael,CA
402,94611,32,"{'Number': 1, 'Name': 'Good'}",2018-10-14 ,0,37.8,PST,-122.27,OZONE,Oakland,CA
403,94611,59,"{'Number': 2, 'Name': 'Moderate'}",2018-10-14 ,0,37.8,PST,-122.27,PM2.5,Oakland,CA
404,94560,39,"{'Number': 1, 'Name': 'Good'}",2018-10-15 ,0,37.55,PST,-122.03,OZONE,Fremont,CA
405,94560,20,"{'Number': 1, 'Name': 'Good'}",2018-10-15 ,0,37.55,PST,-122.03,PM2.5,Fremont,CA
406,94102,38,"{'Number': 1, 'Name': 'Good'}",2018-10-15 ,0,37.75,PST,-122.43,OZONE,San Francisco,CA
407,94102,30,"{'Number': 1, 'Name': 'Good'}",2018-10-15 ,0,37.75,PST,-122.43,PM2.5,San Francisco,CA
408,94130,33,"{'Number': 1, 'Name': 'Good'}",2018-10-10 ,0,37.75,PST,-122.43,PM2.5,San Francisco,CA
409,94140,31,"{'Number': 1, 'Name': 'Good'}",2018-10-11 ,0,37.75,PST,-122.43,OZONE,San Francisco,CA
410,94140,31,"{'Number': 1, 'Name': 'Good'}",2018-10-11 ,0,37.75,PST,-122.43,PM2.5,San Francisco,CA
411,94158,27,"{'Number': 1, 'Name': 'Good'}",2018-10-12 ,0,37.75,PST,-122.43,OZONE,San Francisco,CA
412,94158,29,"{'Number': 1, 'Name': 'Good'}",2018-10-12 ,0,37.75,PST,-122.43,PM2.5,San Francisco,CA
413,95111,38,"{'Number': 1, 'Name': 'Good'}",2018-10-13 ,0,37.33,PST,-121.9,OZONE,San Jose,CA
414,95111,23,"{'Number': 1, 'Name': 'Good'}",2018-10-13 ,0,37.33,PST,-121.9,PM2.5,San Jose,CA
415,94708,32,"{'Number': 1, 'Name': 'Good'}",2018-10-14 ,0,37.8,PST,-122.27,OZONE,Oakland,CA
416,94708,59,"{'Number': 2, 'Name': 'Moderate'}",2018-10-14 ,0,37.8,PST,-122.27,PM2.5,Oakland,CA
417,95056,41,"{'Number': 1, 'Name': 'Good'}",2018-10-15 ,0,37.33,PST,-121.9,OZONE,San Jose,CA
418,95056,25,"{'Number': 1, 'Name': 'Good'}",2018-10-15 ,0,37.33,PST,-121.9,PM2.5,San Jose,CA
419,95054,35,"{'Number': 1, 'Name': 'Good'}",2018-10-09 ,0,37.33,PST,-121.9,OZONE,San Jose,CA
420,95054,43,"{'Number': 1, 'Name': 'Good'}",2018-10-09 ,0,37.33,PST,-121.9,PM2.5,San Jose,CA
421,94534,31,"{'Number': 1, 'Name': 'Good'}",2018-10-10 ,0,38.25,PST,-122.04,OZONE,Fairfield,CA
422,95103,39,"{'Number': 1, 'Name': 'Good'}",2018-10-11 ,0,37.33,PST,-121.9,OZONE,San Jose,CA
423,95103,28,"{'Number': 1, 'Name': 'Good'}",2018-10-11 ,0,37.33,PST,-121.9,PM2.5,San Jose,CA
424,94603,25,"{'Number': 1, 'Name': 'Good'}",2018-10-12 ,0,37.8,PST,-122.27,OZONE,Oakland,CA
425,94603,44,"{'Number': 1, 'Name': 'Good'}",2018-10-12 ,0,37.8,PST,-122.27,PM2.5,Oakland,CA
426,94820,28,"{'Number': 1, 'Name': 'Good'}",2018-10-13 ,0,37.97,PST,-122.52,OZONE,San Rafael,CA
427,94820,39,"{'Number': 1, 'Name': 'Good'}",2018-10-13 ,0,37.97,PST,-122.52,PM2.5,San Rafael,CA
428,94708,32,"{'Number': 1, 'Name': 'Good'}",2018-10-14 ,0,37.8,PST,-122.27,OZONE,Oakland,CA
429,94708,59,"{'Number': 2, 'Name': 'Moderate'}",2018-10-14 ,0,37.8,PST,-122.27,PM2.5,Oakland,CA
430,94133,38,"{'Number': 1, 'Name': 'Good'}",2018-10-15 ,0,37.75,PST,-122.43,OZONE,San Francisco,CA
431,94133,30,"{'Number': 1, 'Name': 'Good'}",2018-10-15 ,0,37.75,PST,-122.43,PM2.5,San Francisco,CA
432,95131,41,"{'Number': 1, 'Name': 'Good'}",2018-10-15 ,0,37.33,PST,-121.9,OZONE,San Jose,CA
433,95131,25,"{'Number': 1, 'Name': 'Good'}",2018-10-15 ,0,37.33,PST,-121.9,PM2.5,San Jose,CA
434,94850,24,"{'Number': 1, 'Name': 'Good'}",2018-10-09 ,0,37.8,PST,-122.27,OZONE,Oakland,CA
435,94850,46,"{'Number': 1, 'Name': 'Good'}",2018-10-09 ,0,37.8,PST,-122.27,PM2.5,Oakland,CA
436,94014,33,"{'Number': 1, 'Name': 'Good'}",2018-10-10 ,0,37.75,PST,-122.43,PM2.5,San Francisco,CA
437,94514,34,"{'Number': 1, 'Name': 'Good'}",2018-10-11 ,0,37.68,PST,-121.77,OZONE,Livermore,CA
438,94514,35,"{'Number': 1, 'Name': 'Good'}",2018-10-11 ,0,37.68,PST,-121.77,PM2.5,Livermore,CA
439,95377,30,"{'Number': 1, 'Name': 'Good'}",2018-10-12 ,0,37.9699,PST,-121.3067,OZONE,Stockton,CA
440,95377,35,"{'Number': 1, 'Name': 'Good'}",2018-10-12 ,0,37.9699,PST,-121.3067,PM2.5,Stockton,CA
441,95015,38,"{'Number': 1, 'Name': 'Good'}",2018-10-13 ,0,37.33,PST,-121.9,OZONE,San Jose,CA
442,95015,23,"{'Number': 1, 'Name': 'Good'}",2018-10-13 ,0,37.33,PST,-121.9,PM2.5,San Jose,CA
443,95031,41,"{'Number': 1, 'Name': 'Good'}",2018-10-14 ,0,37.33,PST,-121.9,OZONE,San Jose,CA
444,95031,32,"{'Number': 1, 'Name': 'Good'}",2018-10-14 ,0,37.33,PST,-121.9,PM2.5,San Jose,CA
445,94979,41,"{'Number': 1, 'Name': 'Good'}",2018-10-15 ,0,37.97,PST,-122.52,OZONE,San Rafael,CA
446,94979,19,"{'Number': 1, 'Name': 'Good'}",2018-10-15 ,0,37.97,PST,-122.52,PM2.5,San Rafael,CA
447,94555,39,"{'Number': 1, 'Name': 'Good'}",2018-10-15 ,0,37.55,PST,-122.03,OZONE,Fremont,CA
448,94555,20,"{'Number': 1, 'Name': 'Good'}",2018-10-15 ,0,37.55,PST,-122.03,PM2.5,Fremont,CA
449,94974,25,"{'Number': 1, 'Name': 'Good'}",2018-10-09 ,0,37.97,PST,-122.52,OZONE,San Rafael,CA
450,94974,29,"{'Number': 1, 'Name': 'Good'}",2018-10-09 ,0,37.97,PST,-122.52,PM2.5,San Rafael,CA
451,94579,31,"{'Number': 1, 'Name': 'Good'}",2018-10-10 ,0,37.55,PST,-122.03,OZONE,Fremont,CA
452,94579,19,"{'Number': 1, 'Name': 'Good'}",2018-10-10 ,0,37.55,PST,-122.03,PM2.5,Fremont,CA
453,94108,31,"{'Number': 1, 'Name': 'Good'}",2018-10-11 ,0,37.75,PST,-122.43,OZONE,San Francisco,CA
454,94108,31,"{'Number': 1, 'Name': 'Good'}",2018-10-11 ,0,37.75,PST,-122.43,PM2.5,San Francisco,CA
455,94506,32,"{'Number': 1, 'Name': 'Good'}",2018-10-12 ,0,37.97,PST,-122.03,OZONE,Concord,CA
456,94506,20,"{'Number': 1, 'Name': 'Good'}",2018-10-12 ,0,37.97,PST,-122.03,PM2.5,Concord,CA
457,94020,26,"{'Number': 1, 'Name': 'Good'}",2018-10-13 ,0,37.48,PST,-122.22,OZONE,Redwood City,CA
458,94020,39,"{'Number': 1, 'Name': 'Good'}",2018-10-13 ,0,37.48,PST,-122.22,PM2.5,Redwood City,CA
459,94540,36,"{'Number': 1, 'Name': 'Good'}",2018-10-14 ,0,37.55,PST,-122.03,OZONE,Fremont,CA
460,94540,48,"{'Number': 1, 'Name': 'Good'}",2018-10-14 ,0,37.55,PST,-122.03,PM2.5,Fremont,CA
461,94901,41,"{'Number': 1, 'Name': 'Good'}",2018-10-15 ,0,37.97,PST,-122.52,OZONE,San Rafael,CA
462,94901,19,"{'Number': 1, 'Name': 'Good'}",2018-10-15 ,0,37.97,PST,-122.52,PM2.5,San Rafael,CA
463,95139,41,"{'Number': 1, 'Name': 'Good'}",2018-10-15 ,0,37.33,PST,-121.9,OZONE,San Jose,CA
464,95139,25,"{'Number': 1, 'Name': 'Good'}",2018-10-15 ,0,37.33,PST,-121.9,PM2.5,San Jose,CA
465,94018,24,"{'Number': 1, 'Name': 'Good'}",2018-10-09 ,0,37.48,PST,-122.22,OZONE,Redwood City,CA
466,94018,29,"{'Number': 1, 'Name': 'Good'}",2018-10-09 ,0,37.48,PST,-122.22,PM2.5,Redwood City,CA
467,94070,26,"{'Number': 1, 'Name': 'Good'}",2018-10-10 ,0,37.48,PST,-122.22,OZONE,Redwood City,CA
468,94070,19,"{'Number': 1, 'Name': 'Good'}",2018-10-10 ,0,37.48,PST,-122.22,PM2.5,Redwood City,CA
469,95476,27,"{'Number': 1, 'Name': 'Good'}",2018-10-11 ,0,38.45,PST,-122.7,OZONE,Santa Rosa,CA
470,95476,6,"{'Number': 1, 'Name': 'Good'}",2018-10-11 ,0,38.45,PST,-122.7,PM2.5,Santa Rosa,CA
471,94030,27,"{'Number': 1, 'Name': 'Good'}",2018-10-12 ,0,37.75,PST,-122.43,OZONE,San Francisco,CA
472,94030,29,"{'Number': 1, 'Name': 'Good'}",2018-10-12 ,0,37.75,PST,-122.43,PM2.5,San Francisco,CA
473,94089,38,"{'Number': 1, 'Name': 'Good'}",2018-10-13 ,0,37.33,PST,-121.9,OZONE,San Jose,CA
474,94089,23,"{'Number': 1, 'Name': 'Good'}",2018-10-13 ,0,37.33,PST,-121.9,PM2.5,San Jose,CA
475,94952,31,"{'Number': 1, 'Name': 'Good'}",2018-10-14 ,0,37.97,PST,-122.52,OZONE,San Rafael,CA
476,94952,38,"{'Number': 1, 'Name': 'Good'}",2018-10-14 ,0,37.97,PST,-122.52,PM2.5,San Rafael,CA
477,95164,41,"{'Number': 1, 'Name': 'Good'}",2018-10-15 ,0,37.33,PST,-121.9,OZONE,San Jose,CA
478,95164,25,"{'Number': 1, 'Name': 'Good'}",2018-10-15 ,0,37.33,PST,-121.9,PM2.5,San Jose,CA
479,94107,38,"{'Number': 1, 'Name': 'Good'}",2018-10-15 ,0,37.75,PST,-122.43,OZONE,San Francisco,CA
480,94107,30,"{'Number': 1, 'Name': 'Good'}",2018-10-15 ,0,37.75,PST,-122.43,PM2.5,San Francisco,CA
481,94565,26,"{'Number': 1, 'Name': 'Good'}",2018-10-09 ,0,37.97,PST,-122.03,OZONE,Concord,CA
482,94565,16,"{'Number': 1, 'Name': 'Good'}",2018-10-09 ,0,37.97,PST,-122.03,PM2.5,Concord,CA
483,94553,22,"{'Number': 1, 'Name': 'Good'}",2018-10-10 ,0,37.97,PST,-122.03,OZONE,Concord,CA
484,94553,21,"{'Number': 1, 'Name': 'Good'}",2018-10-10 ,0,37.97,PST,-122.03,PM2.5,Concord,CA
485,94914,28,"{'Number': 1, 'Name': 'Good'}",2018-10-11 ,0,37.97,PST,-122.52,OZONE,San Rafael,CA
486,94914,32,"{'Number': 1, 'Name': 'Good'}",2018-10-11 ,0,37.97,PST,-122.52,PM2.5,San Rafael,CA
487,94922,31,"{'Number': 1, 'Name': 'Good'}",2018-10-12 ,0,38.45,PST,-122.7,OZONE,Santa Rosa,CA
488,94922,2,"{'Number': 1, 'Name': 'Good'}",2018-10-12 ,0,38.45,PST,-122.7,PM2.5,Santa Rosa,CA
489,94015,31,"{'Number': 1, 'Name': 'Good'}",2018-10-13 ,0,37.75,PST,-122.43,OZONE,San Francisco,CA
490,94015,41,"{'Number': 1, 'Name': 'Good'}",2018-10-13 ,0,37.75,PST,-122.43,PM2.5,San Francisco,CA
491,94497,31,"{'Number': 1, 'Name': 'Good'}",2018-10-14 ,0,37.48,PST,-122.22,OZONE,Redwood City,CA
492,94497,48,"{'Number': 1, 'Name': 'Good'}",2018-10-14 ,0,37.48,PST,-122.22,PM2.5,Redwood City,CA
493,94040,38,"{'Number': 1, 'Name': 'Good'}",2018-10-15 ,0,37.48,PST,-122.22,OZONE,Redwood City,CA
494,94040,20,"{'Number': 1, 'Name': 'Good'}",2018-10-15 ,0,37.48,PST,-122.22,PM2.5,Redwood City,CA
495,95127,41,"{'Number': 1, 'Name': 'Good'}",2018-10-15 ,0,37.33,PST,-121.9,OZONE,San Jose,CA
496,95127,25,"{'Number': 1, 'Name': 'Good'}",2018-10-15 ,0,37.33,PST,-121.9,PM2.5,San Jose,CA
497,94931,25,"{'Number': 1, 'Name': 'Good'}",2018-10-09 ,0,38.45,PST,-122.7,OZONE,Santa Rosa,CA
498,94123,33,"{'Number': 1, 'Name': 'Good'}",2018-10-10 ,0,37.75,PST,-122.43,PM2.5,San Francisco,CA
499,95154,39,"{'Number': 1, 'Name': 'Good'}",2018-10-11 ,0,37.33,PST,-121.9,OZONE,San Jose,CA
500,95154,28,"{'Number': 1, 'Name': 'Good'}",2018-10-11 ,0,37.33,PST,-121.9,PM2.5,San Jose,CA
501,94904,34,"{'Number': 1, 'Name': 'Good'}",2018-10-12 ,0,37.97,PST,-122.52,OZONE,San Rafael,CA
502,94904,26,"{'Number': 1, 'Name': 'Good'}",2018-10-12 ,0,37.97,PST,-122.52,PM2.5,San Rafael,CA
503,94620,28,"{'Number': 1, 'Name': 'Good'}",2018-10-13 ,0,37.8,PST,-122.27,OZONE,Oakland,CA
504,94620,54,"{'Number': 2, 'Name': 'Moderate'}",2018-10-13 ,0,37.8,PST,-122.27,PM2.5,Oakland,CA
505,94134,31,"{'Number': 1, 'Name': 'Good'}",2018-10-14 ,0,37.75,PST,-122.43,OZONE,San Francisco,CA
506,94134,48,"{'Number': 1, 'Name': 'Good'}",2018-10-14 ,0,37.75,PST,-122.43,PM2.5,San Francisco,CA
507,94116,38,"{'Number': 1, 'Name': 'Good'}",2018-10-15 ,0,37.75,PST,-122.43,OZONE,San Francisco,CA
508,94116,30,"{'Number': 1, 'Name': 'Good'}",2018-10-15 ,0,37.75,PST,-122.43,PM2.5,San Francisco,CA
509,94912,41,"{'Number': 1, 'Name': 'Good'}",2018-10-15 ,0,37.97,PST,-122.52,OZONE,San Rafael,CA
510,94912,19,"{'Number': 1, 'Name': 'Good'}",2018-10-15 ,0,37.97,PST,-122.52,PM2.5,San Rafael,CA
511,94707,24,"{'Number': 1, 'Name': 'Good'}",2018-10-09 ,0,37.8,PST,-122.27,OZONE,Oakland,CA
512,94707,46,"{'Number': 1, 'Name': 'Good'}",2018-10-09 ,0,37.8,PST,-122.27,PM2.5,Oakland,CA
513,94080,33,"{'Number': 1, 'Name': 'Good'}",2018-10-10 ,0,37.75,PST,-122.43,PM2.5,San Francisco,CA
514,94563,27,"{'Number': 1, 'Name': 'Good'}",2018-10-11 ,0,37.8,PST,-122.27,OZONE,Oakland,CA
515,94563,49,"{'Number': 1, 'Name': 'Good'}",2018-10-11 ,0,37.8,PST,-122.27,PM2.5,Oakland,CA
516,94514,40,"{'Number': 1, 'Name': 'Good'}",2018-10-13 ,0,37.68,PST,-121.77,OZONE,Livermore,CA
517,94514,44,"{'Number': 1, 'Name': 'Good'}",2018-10-13 ,0,37.68,PST,-121.77,PM2.5,Livermore,CA
518,94605,32,"{'Number': 1, 'Name': 'Good'}",2018-10-14 ,0,37.8,PST,-122.27,OZONE,Oakland,CA
519,94605,59,"{'Number': 2, 'Name': 'Moderate'}",2018-10-14 ,0,37.8,PST,-122.27,PM2.5,Oakland,CA
520,94582,40,"{'Number': 1, 'Name': 'Good'}",2018-10-15 ,0,37.68,PST,-121.77,OZONE,Livermore,CA
521,94582,16,"{'Number': 1, 'Name': 'Good'}",2018-10-15 ,0,37.68,PST,-121.77,PM2.5,Livermore,CA
522,94621,34,"{'Number': 1, 'Name': 'Good'}",2018-10-15 ,0,37.8,PST,-122.27,OZONE,Oakland,CA
523,94621,19,"{'Number': 1, 'Name': 'Good'}",2018-10-15 ,0,37.8,PST,-122.27,PM2.5,Oakland,CA
524,94517,26,"{'Number': 1, 'Name': 'Good'}",2018-10-09 ,0,37.97,PST,-122.03,OZONE,Concord,CA
525,94517,16,"{'Number': 1, 'Name': 'Good'}",2018-10-09 ,0,37.97,PST,-122.03,PM2.5,Concord,CA
526,95430,30,"{'Number': 1, 'Name': 'Good'}",2018-10-10 ,0,38.45,PST,-122.7,OZONE,Santa Rosa,CA
527,95430,10,"{'Number': 1, 'Name': 'Good'}",2018-10-10 ,0,38.45,PST,-122.7,PM2.5,Santa Rosa,CA
528,94112,31,"{'Number': 1, 'Name': 'Good'}",2018-10-11 ,0,37.75,PST,-122.43,OZONE,San Francisco,CA
529,94112,31,"{'Number': 1, 'Name': 'Good'}",2018-10-11 ,0,37.75,PST,-122.43,PM2.5,San Francisco,CA
530,94112,27,"{'Number': 1, 'Name': 'Good'}",2018-10-12 ,0,37.75,PST,-122.43,OZONE,San Francisco,CA
531,94112,29,"{'Number': 1, 'Name': 'Good'}",2018-10-12 ,0,37.75,PST,-122.43,PM2.5,San Francisco,CA
532,95696,43,"{'Number': 1, 'Name': 'Good'}",2018-10-13 ,0,38.3525,PST,-121.9617,OZONE,Vacaville,CA
533,95696,16,"{'Number': 1, 'Name': 'Good'}",2018-10-13 ,0,38.3525,PST,-121.9617,PM2.5,Vacaville,CA
534,95616,34,"{'Number': 1, 'Name': 'Good'}",2018-10-14 ,0,38.5448,PST,-121.7411,OZONE,Davis,CA
535,95616,20,"{'Number': 1, 'Name': 'Good'}",2018-10-14 ,0,38.5448,PST,-121.7411,PM2.5,Davis,CA
536,95461,41,"{'Number': 1, 'Name': 'Good'}",2018-10-15 ,0,38.45,PST,-122.7,OZONE,Santa Rosa,CA
537,95461,4,"{'Number': 1, 'Name': 'Good'}",2018-10-15 ,0,38.45,PST,-122.7,PM2.5,Santa Rosa,CA
538,95070,41,"{'Number': 1, 'Name': 'Good'}",2018-10-15 ,0,37.33,PST,-121.9,OZONE,San Jose,CA
539,95070,25,"{'Number': 1, 'Name': 'Good'}",2018-10-15 ,0,37.33,PST,-121.9,PM2.5,San Jose,CA
540,94515,25,"{'Number': 1, 'Name': 'Good'}",2018-10-09 ,0,38.45,PST,-122.7,OZONE,Santa Rosa,CA
541,94903,27,"{'Number': 1, 'Name': 'Good'}",2018-10-10 ,0,37.97,PST,-122.52,OZONE,San Rafael,CA
542,94903,33,"{'Number': 1, 'Name': 'Good'}",2018-10-10 ,0,37.97,PST,-122.52,PM2.5,San Rafael,CA
543,95625,40,"{'Number': 1, 'Name': 'Good'}",2018-10-11 ,0,38.3525,PST,-121.9617,OZONE,Vacaville,CA
544,94913,34,"{'Number': 1, 'Name': 'Good'}",2018-10-12 ,0,37.97,PST,-122.52,OZONE,San Rafael,CA
545,94913,26,"{'Number': 1, 'Name': 'Good'}",2018-10-12 ,0,37.97,PST,-122.52,PM2.5,San Rafael,CA
546,95009,38,"{'Number': 1, 'Name': 'Good'}",2018-10-13 ,0,37.33,PST,-121.9,OZONE,San Jose,CA
547,95009,23,"{'Number': 1, 'Name': 'Good'}",2018-10-13 ,0,37.33,PST,-121.9,PM2.5,San Jose,CA
548,94164,31,"{'Number': 1, 'Name': 'Good'}",2018-10-14 ,0,37.75,PST,-122.43,OZONE,San Francisco,CA
549,94164,48,"{'Number': 1, 'Name': 'Good'}",2018-10-14 ,0,37.75,PST,-122.43,PM2.5,San Francisco,CA
550,94502,34,"{'Number': 1, 'Name': 'Good'}",2018-10-15 ,0,37.8,PST,-122.27,OZONE,Oakland,CA
551,94502,19,"{'Number': 1, 'Name': 'Good'}",2018-10-15 ,0,37.8,PST,-122.27,PM2.5,Oakland,CA
552,95192,41,"{'Number': 1, 'Name': 'Good'}",2018-10-15 ,0,37.33,PST,-121.9,OZONE,San Jose,CA
553,95192,25,"{'Number': 1, 'Name': 'Good'}",2018-10-15 ,0,37.33,PST,-121.9,PM2.5,San Jose,CA
554,94531,26,"{'Number': 1, 'Name': 'Good'}",2018-10-09 ,0,37.97,PST,-122.03,OZONE,Concord,CA
555,94531,16,"{'Number': 1, 'Name': 'Good'}",2018-10-09 ,0,37.97,PST,-122.03,PM2.5,Concord,CA
556,94949,28,"{'Number': 1, 'Name': 'Good'}",2018-10-11 ,0,37.97,PST,-122.52,OZONE,San Rafael,CA
557,94949,32,"{'Number': 1, 'Name': 'Good'}",2018-10-11 ,0,37.97,PST,-122.52,PM2.5,San Rafael,CA
558,95471,31,"{'Number': 1, 'Name': 'Good'}",2018-10-12 ,0,38.45,PST,-122.7,OZONE,Santa Rosa,CA
559,95471,2,"{'Number': 1, 'Name': 'Good'}",2018-10-12 ,0,38.45,PST,-122.7,PM2.5,Santa Rosa,CA
560,94556,28,"{'Number': 1, 'Name': 'Good'}",2018-10-13 ,0,37.8,PST,-122.27,OZONE,Oakland,CA
561,94556,54,"{'Number': 2, 'Name': 'Moderate'}",2018-10-13 ,0,37.8,PST,-122.27,PM2.5,Oakland,CA
562,94598,30,"{'Number': 1, 'Name': 'Good'}",2018-10-14 ,0,37.97,PST,-122.03,OZONE,Concord,CA
563,94598,22,"{'Number': 1, 'Name': 'Good'}",2018-10-14 ,0,37.97,PST,-122.03,PM2.5,Concord,CA
564,95036,41,"{'Number': 1, 'Name': 'Good'}",2018-10-15 ,0,37.33,PST,-121.9,OZONE,San Jose,CA
565,95036,25,"{'Number': 1, 'Name': 'Good'}",2018-10-15 ,0,37.33,PST,-121.9,PM2.5,San Jose,CA
566,94025,38,"{'Number': 1, 'Name': 'Good'}",2018-10-15 ,0,37.48,PST,-122.22,OZONE,Redwood City,CA
567,94025,20,"{'Number': 1, 'Name': 'Good'}",2018-10-15 ,0,37.48,PST,-122.22,PM2.5,Redwood City,CA
568,95122,35,"{'Number': 1, 'Name': 'Good'}",2018-10-09 ,0,37.33,PST,-121.9,OZONE,San Jose,CA
569,95122,43,"{'Number': 1, 'Name': 'Good'}",2018-10-09 ,0,37.33,PST,-121.9,PM2.5,San Jose,CA
570,94505,32,"{'Number': 1, 'Name': 'Good'}",2018-10-10 ,0,37.9699,PST,-121.3067,OZONE,Stockton,CA
571,94505,41,"{'Number': 1, 'Name': 'Good'}",2018-10-10 ,0,37.9699,PST,-121.3067,PM2.5,Stockton,CA
572,94704,27,"{'Number': 1, 'Name': 'Good'}",2018-10-11 ,0,37.8,PST,-122.27,OZONE,Oakland,CA
573,94704,49,"{'Number': 1, 'Name': 'Good'}",2018-10-11 ,0,37.8,PST,-122.27,PM2.5,Oakland,CA
574,94924,34,"{'Number': 1, 'Name': 'Good'}",2018-10-12 ,0,37.97,PST,-122.52,OZONE,San Rafael,CA
575,94924,26,"{'Number': 1, 'Name': 'Good'}",2018-10-12 ,0,37.97,PST,-122.52,PM2.5,San Rafael,CA
576,94805,28,"{'Number': 1, 'Name': 'Good'}",2018-10-13 ,0,37.8,PST,-122.27,OZONE,Oakland,CA
577,94805,54,"{'Number': 2, 'Name': 'Moderate'}",2018-10-13 ,0,37.8,PST,-122.27,PM2.5,Oakland,CA
578,94954,29,"{'Number': 1, 'Name': 'Good'}",2018-10-14 ,0,38.45,PST,-122.7,OZONE,Santa Rosa,CA
579,94513,40,"{'Number': 1, 'Name': 'Good'}",2018-10-15 ,0,37.68,PST,-121.77,OZONE,Livermore,CA
580,94513,16,"{'Number': 1, 'Name': 'Good'}",2018-10-15 ,0,37.68,PST,-121.77,PM2.5,Livermore,CA
581,94306,38,"{'Number': 1, 'Name': 'Good'}",2018-10-15 ,0,37.48,PST,-122.22,OZONE,Redwood City,CA
582,94306,20,"{'Number': 1, 'Name': 'Good'}",2018-10-15 ,0,37.48,PST,-122.22,PM2.5,Redwood City,CA
583,94028,24,"{'Number': 1, 'Name': 'Good'}",2018-10-09 ,0,37.48,PST,-122.22,OZONE,Redwood City,CA
584,94028,29,"{'Number': 1, 'Name': 'Good'}",2018-10-09 ,0,37.48,PST,-122.22,PM2.5,Redwood City,CA
585,94146,33,"{'Number': 1, 'Name': 'Good'}",2018-10-10 ,0,37.75,PST,-122.43,PM2.5,San Francisco,CA
586,94533,35,"{'Number': 1, 'Name': 'Good'}",2018-10-11 ,0,38.25,PST,-122.04,OZONE,Fairfield,CA
587,94712,25,"{'Number': 1, 'Name': 'Good'}",2018-10-12 ,0,37.8,PST,-122.27,OZONE,Oakland,CA
588,94712,44,"{'Number': 1, 'Name': 'Good'}",2018-10-12 ,0,37.8,PST,-122.27,PM2.5,Oakland,CA
589,95492,28,"{'Number': 1, 'Name': 'Good'}",2018-10-13 ,0,38.45,PST,-122.7,OZONE,Santa Rosa,CA
590,95492,6,"{'Number': 1, 'Name': 'Good'}",2018-10-13 ,0,38.45,PST,-122.7,PM2.5,Santa Rosa,CA
591,94537,36,"{'Number': 1, 'Name': 'Good'}",2018-10-14 ,0,37.55,PST,-122.03,OZONE,Fremont,CA
592,94537,48,"{'Number': 1, 'Name': 'Good'}",2018-10-14 ,0,37.55,PST,-122.03,PM2.5,Fremont,CA
593,94587,39,"{'Number': 1, 'Name': 'Good'}",2018-10-15 ,0,37.55,PST,-122.03,OZONE,Fremont,CA
594,94587,20,"{'Number': 1, 'Name': 'Good'}",2018-10-15 ,0,37.55,PST,-122.03,PM2.5,Fremont,CA
595,94580,39,"{'Number': 1, 'Name': 'Good'}",2018-10-15 ,0,37.55,PST,-122.03,OZONE,Fremont,CA
596,94580,20,"{'Number': 1, 'Name': 'Good'}",2018-10-15 ,0,37.55,PST,-122.03,PM2.5,Fremont,CA
597,95448,25,"{'Number': 1, 'Name': 'Good'}",2018-10-09 ,0,38.45,PST,-122.7,OZONE,Santa Rosa,CA
598,94938,27,"{'Number': 1, 'Name': 'Good'}",2018-10-10 ,0,37.97,PST,-122.52,OZONE,San Rafael,CA
599,94938,33,"{'Number': 1, 'Name': 'Good'}",2018-10-10 ,0,37.97,PST,-122.52,PM2.5,San Rafael,CA
600,94301,28,"{'Number': 1, 'Name': 'Good'}",2018-10-11 ,0,37.48,PST,-122.22,OZONE,Redwood City,CA
601,94301,34,"{'Number': 1, 'Name': 'Good'}",2018-10-11 ,0,37.48,PST,-122.22,PM2.5,Redwood City,CA
602,94977,34,"{'Number': 1, 'Name': 'Good'}",2018-10-12 ,0,37.97,PST,-122.52,OZONE,San Rafael,CA
603,94977,26,"{'Number': 1, 'Name': 'Good'}",2018-10-12 ,0,37.97,PST,-122.52,PM2.5,San Rafael,CA
604,95465,28,"{'Number': 1, 'Name': 'Good'}",2018-10-13 ,0,38.45,PST,-122.7,OZONE,Santa Rosa,CA
605,95465,6,"{'Number': 1, 'Name': 'Good'}",2018-10-13 ,0,38.45,PST,-122.7,PM2.5,Santa Rosa,CA
606,94601,32,"{'Number': 1, 'Name': 'Good'}",2018-10-14 ,0,37.8,PST,-122.27,OZONE,Oakland,CA
607,94601,59,"{'Number': 2, 'Name': 'Moderate'}",2018-10-14 ,0,37.8,PST,-122.27,PM2.5,Oakland,CA
608,94117,38,"{'Number': 1, 'Name': 'Good'}",2018-10-15 ,0,37.75,PST,-122.43,OZONE,San Francisco,CA
609,94117,30,"{'Number': 1, 'Name': 'Good'}",2018-10-15 ,0,37.75,PST,-122.43,PM2.5,San Francisco,CA
610,94624,34,"{'Number': 1, 'Name': 'Good'}",2018-10-15 ,0,37.8,PST,-122.27,OZONE,Oakland,CA
611,94624,19,"{'Number': 1, 'Name': 'Good'}",2018-10-15 ,0,37.8,PST,-122.27,PM2.5,Oakland,CA
612,94303,24,"{'Number': 1, 'Name': 'Good'}",2018-10-09 ,0,37.48,PST,-122.22,OZONE,Redwood City,CA
613,94303,29,"{'Number': 1, 'Name': 'Good'}",2018-10-09 ,0,37.48,PST,-122.22,PM2.5,Redwood City,CA
614,94950,27,"{'Number': 1, 'Name': 'Good'}",2018-10-10 ,0,37.97,PST,-122.52,OZONE,San Rafael,CA
615,94950,33,"{'Number': 1, 'Name': 'Good'}",2018-10-10 ,0,37.97,PST,-122.52,PM2.5,San Rafael,CA
616,94064,28,"{'Number': 1, 'Name': 'Good'}",2018-10-11 ,0,37.48,PST,-122.22,OZONE,Redwood City,CA
617,94064,34,"{'Number': 1, 'Name': 'Good'}",2018-10-11 ,0,37.48,PST,-122.22,PM2.5,Redwood City,CA
618,94037,27,"{'Number': 1, 'Name': 'Good'}",2018-10-12 ,0,37.75,PST,-122.43,OZONE,San Francisco,CA
619,94037,29,"{'Number': 1, 'Name': 'Good'}",2018-10-12 ,0,37.75,PST,-122.43,PM2.5,San Francisco,CA
620,94507,31,"{'Number': 1, 'Name': 'Good'}",2018-10-13 ,0,37.97,PST,-122.03,OZONE,Concord,CA
621,94507,19,"{'Number': 1, 'Name': 'Good'}",2018-10-13 ,0,37.97,PST,-122.03,PM2.5,Concord,CA
622,94928,29,"{'Number': 1, 'Name': 'Good'}",2018-10-14 ,0,38.45,PST,-122.7,OZONE,Santa Rosa,CA
623,94662,34,"{'Number': 1, 'Name': 'Good'}",2018-10-15 ,0,37.8,PST,-122.27,OZONE,Oakland,CA
624,94662,19,"{'Number': 1, 'Name': 'Good'}",2018-10-15 ,0,37.8,PST,-122.27,PM2.5,Oakland,CA
625,95130,41,"{'Number': 1, 'Name': 'Good'}",2018-10-15 ,0,37.33,PST,-121.9,OZONE,San Jose,CA
626,95130,25,"{'Number': 1, 'Name': 'Good'}",2018-10-15 ,0,37.33,PST,-121.9,PM2.5,San Jose,CA
627,94122,28,"{'Number': 1, 'Name': 'Good'}",2018-10-09 ,0,37.75,PST,-122.43,OZONE,San Francisco,CA
628,94122,27,"{'Number': 1, 'Name': 'Good'}",2018-10-09 ,0,37.75,PST,-122.43,PM2.5,San Francisco,CA
629,94060,26,"{'Number': 1, 'Name': 'Good'}",2018-10-10 ,0,37.48,PST,-122.22,OZONE,Redwood City,CA
630,94060,19,"{'Number': 1, 'Name': 'Good'}",2018-10-10 ,0,37.48,PST,-122.22,PM2.5,Redwood City,CA
631,94804,27,"{'Number': 1, 'Name': 'Good'}",2018-10-11 ,0,37.8,PST,-122.27,OZONE,Oakland,CA
632,94804,49,"{'Number': 1, 'Name': 'Good'}",2018-10-11 ,0,37.8,PST,-122.27,PM2.5,Oakland,CA
633,94619,25,"{'Number': 1, 'Name': 'Good'}",2018-10-12 ,0,37.8,PST,-122.27,OZONE,Oakland,CA
634,94619,44,"{'Number': 1, 'Name': 'Good'}",2018-10-12 ,0,37.8,PST,-122.27,PM2.5,Oakland,CA
635,94586,40,"{'Number': 1, 'Name': 'Good'}",2018-10-13 ,0,37.68,PST,-121.77,OZONE,Livermore,CA
636,94586,44,"{'Number': 1, 'Name': 'Good'}",2018-10-13 ,0,37.68,PST,-121.77,PM2.5,Livermore,CA
637,94128,31,"{'Number': 1, 'Name': 'Good'}",2018-10-14 ,0,37.75,PST,-122.43,OZONE,San Francisco,CA
638,94128,48,"{'Number': 1, 'Name': 'Good'}",2018-10-14 ,0,37.75,PST,-122.43,PM2.5,San Francisco,CA
639,95148,41,"{'Number': 1, 'Name': 'Good'}",2018-10-15 ,0,37.33,PST,-121.9,OZONE,San Jose,CA
640,95148,25,"{'Number': 1, 'Name': 'Good'}",2018-10-15 ,0,37.33,PST,-121.9,PM2.5,San Jose,CA
641,95405,25,"{'Number': 1, 'Name': 'Good'}",2018-10-09 ,0,38.45,PST,-122.7,OZONE,Santa Rosa,CA
642,95421,30,"{'Number': 1, 'Name': 'Good'}",2018-10-10 ,0,38.45,PST,-122.7,OZONE,Santa Rosa,CA
643,95421,10,"{'Number': 1, 'Name': 'Good'}",2018-10-10 ,0,38.45,PST,-122.7,PM2.5,Santa Rosa,CA
644,94807,28,"{'Number': 1, 'Name': 'Good'}",2018-10-11 ,0,37.97,PST,-122.52,OZONE,San Rafael,CA
645,94807,32,"{'Number': 1, 'Name': 'Good'}",2018-10-11 ,0,37.97,PST,-122.52,PM2.5,San Rafael,CA
646,95694,36,"{'Number': 1, 'Name': 'Good'}",2018-10-12 ,0,38.3525,PST,-121.9617,OZONE,Vacaville,CA
647,94661,28,"{'Number': 1, 'Name': 'Good'}",2018-10-13 ,0,37.8,PST,-122.27,OZONE,Oakland,CA
648,94661,54,"{'Number': 2, 'Name': 'Moderate'}",2018-10-13 ,0,37.8,PST,-122.27,PM2.5,Oakland,CA
649,95442,29,"{'Number': 1, 'Name': 'Good'}",2018-10-14 ,0,38.45,PST,-122.7,OZONE,Santa Rosa,CA
650,95155,41,"{'Number': 1, 'Name': 'Good'}",2018-10-15 ,0,37.33,PST,-121.9,OZONE,San Jose,CA
651,95155,25,"{'Number': 1, 'Name': 'Good'}",2018-10-15 ,0,37.33,PST,-121.9,PM2.5,San Jose,CA
652,95126,41,"{'Number': 1, 'Name': 'Good'}",2018-10-15 ,0,37.33,PST,-121.9,OZONE,San Jose,CA
653,95126,25,"{'Number': 1, 'Name': 'Good'}",2018-10-15 ,0,37.33,PST,-121.9,PM2.5,San Jose,CA
654,94933,25,"{'Number': 1, 'Name': 'Good'}",2018-10-09 ,0,37.97,PST,-122.52,OZONE,San Rafael,CA
655,94933,29,"{'Number': 1, 'Name': 'Good'}",2018-10-09 ,0,37.97,PST,-122.52,PM2.5,San Rafael,CA
656,94027,26,"{'Number': 1, 'Name': 'Good'}",2018-10-10 ,0,37.48,PST,-122.22,OZONE,Redwood City,CA
657,94027,19,"{'Number': 1, 'Name': 'Good'}",2018-10-10 ,0,37.48,PST,-122.22,PM2.5,Redwood City,CA
658,94019,31,"{'Number': 1, 'Name': 'Good'}",2018-10-11 ,0,37.75,PST,-122.43,OZONE,San Francisco,CA
659,94019,31,"{'Number': 1, 'Name': 'Good'}",2018-10-11 ,0,37.75,PST,-122.43,PM2.5,San Francisco,CA
660,94121,27,"{'Number': 1, 'Name': 'Good'}",2018-10-12 ,0,37.75,PST,-122.43,OZONE,San Francisco,CA
661,94121,29,"{'Number': 1, 'Name': 'Good'}",2018-10-12 ,0,37.75,PST,-122.43,PM2.5,San Francisco,CA
662,94522,31,"{'Number': 1, 'Name': 'Good'}",2018-10-13 ,0,37.97,PST,-122.03,OZONE,Concord,CA
663,94522,19,"{'Number': 1, 'Name': 'Good'}",2018-10-13 ,0,37.97,PST,-122.03,PM2.5,Concord,CA
664,95002,36,"{'Number': 1, 'Name': 'Good'}",2018-10-14 ,0,37.55,PST,-122.03,OZONE,Fremont,CA
665,95002,48,"{'Number': 1, 'Name': 'Good'}",2018-10-14 ,0,37.55,PST,-122.03,PM2.5,Fremont,CA
666,95173,41,"{'Number': 1, 'Name': 'Good'}",2018-10-15 ,0,37.33,PST,-121.9,OZONE,San Jose,CA
667,95173,25,"{'Number': 1, 'Name': 'Good'}",2018-10-15 ,0,37.33,PST,-121.9,PM2.5,San Jose,CA
668,94530,34,"{'Number': 1, 'Name': 'Good'}",2018-10-15 ,0,37.8,PST,-122.27,OZONE,Oakland,CA
669,94530,19,"{'Number': 1, 'Name': 'Good'}",2018-10-15 ,0,37.8,PST,-122.27,PM2.5,Oakland,CA
670,94132,28,"{'Number': 1, 'Name': 'Good'}",2018-10-09 ,0,37.75,PST,-122.43,OZONE,San Francisco,CA
671,94132,27,"{'Number': 1, 'Name': 'Good'}",2018-10-09 ,0,37.75,PST,-122.43,PM2.5,San Francisco,CA
672,95153,31,"{'Number': 1, 'Name': 'Good'}",2018-10-10 ,0,37.33,PST,-121.9,OZONE,San Jose,CA
673,95153,15,"{'Number': 1, 'Name': 'Good'}",2018-10-10 ,0,37.33,PST,-121.9,PM2.5,San Jose,CA
674,94623,27,"{'Number': 1, 'Name': 'Good'}",2018-10-11 ,0,37.8,PST,-122.27,OZONE,Oakland,CA
675,94623,49,"{'Number': 1, 'Name': 'Good'}",2018-10-11 ,0,37.8,PST,-122.27,PM2.5,Oakland,CA
676,94618,25,"{'Number': 1, 'Name': 'Good'}",2018-10-12 ,0,37.8,PST,-122.27,OZONE,Oakland,CA
677,94618,44,"{'Number': 1, 'Name': 'Good'}",2018-10-12 ,0,37.8,PST,-122.27,PM2.5,Oakland,CA
678,95138,38,"{'Number': 1, 'Name': 'Good'}",2018-10-13 ,0,37.33,PST,-121.9,OZONE,San Jose,CA
679,95138,23,"{'Number': 1, 'Name': 'Good'}",2018-10-13 ,0,37.33,PST,-121.9,PM2.5,San Jose,CA
680,95121,41,"{'Number': 1, 'Name': 'Good'}",2018-10-14 ,0,37.33,PST,-121.9,OZONE,San Jose,CA
681,95121,32,"{'Number': 1, 'Name': 'Good'}",2018-10-14 ,0,37.33,PST,-121.9,PM2.5,San Jose,CA
682,94010,38,"{'Number': 1, 'Name': 'Good'}",2018-10-15 ,0,37.48,PST,-122.22,OZONE,Redwood City,CA
683,94010,20,"{'Number': 1, 'Name': 'Good'}",2018-10-15 ,0,37.48,PST,-122.22,PM2.5,Redwood City,CA
684,95473,41,"{'Number': 1, 'Name': 'Good'}",2018-10-15 ,0,38.45,PST,-122.7,OZONE,Santa Rosa,CA
685,95473,4,"{'Number': 1, 'Name': 'Good'}",2018-10-15 ,0,38.45,PST,-122.7,PM2.5,Santa Rosa,CA
686,95050,35,"{'Number': 1, 'Name': 'Good'}",2018-10-09 ,0,37.33,PST,-121.9,OZONE,San Jose,CA
687,95050,43,"{'Number': 1, 'Name': 'Good'}",2018-10-09 ,0,37.33,PST,-121.9,PM2.5,San Jose,CA
688,94572,26,"{'Number': 1, 'Name': 'Good'}",2018-10-11 ,0,37.97,PST,-122.03,OZONE,Concord,CA
689,94572,22,"{'Number': 1, 'Name': 'Good'}",2018-10-11 ,0,37.97,PST,-122.03,PM2.5,Concord,CA
690,95157,43,"{'Number': 1, 'Name': 'Good'}",2018-10-12 ,0,37.33,PST,-121.9,OZONE,San Jose,CA
691,95157,25,"{'Number': 1, 'Name': 'Good'}",2018-10-12 ,0,37.33,PST,-121.9,PM2.5,San Jose,CA
692,94947,28,"{'Number': 1, 'Name': 'Good'}",2018-10-13 ,0,37.97,PST,-122.52,OZONE,San Rafael,CA
693,94947,39,"{'Number': 1, 'Name': 'Good'}",2018-10-13 ,0,37.97,PST,-122.52,PM2.5,San Rafael,CA
694,94614,32,"{'Number': 1, 'Name': 'Good'}",2018-10-14 ,0,37.8,PST,-122.27,OZONE,Oakland,CA
695,94614,59,"{'Number': 2, 'Name': 'Moderate'}",2018-10-14 ,0,37.8,PST,-122.27,PM2.5,Oakland,CA
696,94705,34,"{'Number': 1, 'Name': 'Good'}",2018-10-15 ,0,37.8,PST,-122.27,OZONE,Oakland,CA
697,94705,19,"{'Number': 1, 'Name': 'Good'}",2018-10-15 ,0,37.8,PST,-122.27,PM2.5,Oakland,CA
698,95118,41,"{'Number': 1, 'Name': 'Good'}",2018-10-15 ,0,37.33,PST,-121.9,OZONE,San Jose,CA
699,95118,25,"{'Number': 1, 'Name': 'Good'}",2018-10-15 ,0,37.33,PST,-121.9,PM2.5,San Jose,CA
700,94111,28,"{'Number': 1, 'Name': 'Good'}",2018-10-09 ,0,37.75,PST,-122.43,OZONE,San Francisco,CA
701,94111,27,"{'Number': 1, 'Name': 'Good'}",2018-10-09 ,0,37.75,PST,-122.43,PM2.5,San Francisco,CA
702,94035,31,"{'Number': 1, 'Name': 'Good'}",2018-10-10 ,0,37.55,PST,-122.03,OZONE,Fremont,CA
703,94035,19,"{'Number': 1, 'Name': 'Good'}",2018-10-10 ,0,37.55,PST,-122.03,PM2.5,Fremont,CA
704,94134,27,"{'Number': 1, 'Name': 'Good'}",2018-10-12 ,0,37.75,PST,-122.43,OZONE,San Francisco,CA
705,94134,29,"{'Number': 1, 'Name': 'Good'}",2018-10-12 ,0,37.75,PST,-122.43,PM2.5,San Francisco,CA
706,95406,28,"{'Number': 1, 'Name': 'Good'}",2018-10-13 ,0,38.45,PST,-122.7,OZONE,Santa Rosa,CA
707,95406,6,"{'Number': 1, 'Name': 'Good'}",2018-10-13 ,0,38.45,PST,-122.7,PM2.5,Santa Rosa,CA
708,94520,30,"{'Number': 1, 'Name': 'Good'}",2018-10-14 ,0,37.97,PST,-122.03,OZONE,Concord,CA
709,94520,22,"{'Number': 1, 'Name': 'Good'}",2018-10-14 ,0,37.97,PST,-122.03,PM2.5,Concord,CA
710,94558,45,"{'Number': 1, 'Name': 'Good'}",2018-10-15 ,0,38.33,PST,-122.28,OZONE,Napa,CA
711,94558,13,"{'Number': 1, 'Name': 'Good'}",2018-10-15 ,0,38.33,PST,-122.28,PM2.5,Napa,CA
712,94508,41,"{'Number': 1, 'Name': 'Good'}",2018-10-15 ,0,38.45,PST,-122.7,OZONE,Santa Rosa,CA
713,94508,4,"{'Number': 1, 'Name': 'Good'}",2018-10-15 ,0,38.45,PST,-122.7,PM2.5,Santa Rosa,CA
714,94074,24,"{'Number': 1, 'Name': 'Good'}",2018-10-09 ,0,37.48,PST,-122.22,OZONE,Redwood City,CA
715,94074,29,"{'Number': 1, 'Name': 'Good'}",2018-10-09 ,0,37.48,PST,-122.22,PM2.5,Redwood City,CA
716,94547,27,"{'Number': 1, 'Name': 'Good'}",2018-10-10 ,0,37.97,PST,-122.52,OZONE,San Rafael,CA
717,94547,33,"{'Number': 1, 'Name': 'Good'}",2018-10-10 ,0,37.97,PST,-122.52,PM2.5,San Rafael,CA
718,95439,27,"{'Number': 1, 'Name': 'Good'}",2018-10-11 ,0,38.45,PST,-122.7,OZONE,Santa Rosa,CA
719,95439,6,"{'Number': 1, 'Name': 'Good'}",2018-10-11 ,0,38.45,PST,-122.7,PM2.5,Santa Rosa,CA
720,94701,25,"{'Number': 1, 'Name': 'Good'}",2018-10-12 ,0,37.8,PST,-122.27,OZONE,Oakland,CA
721,94701,44,"{'Number': 1, 'Name': 'Good'}",2018-10-12 ,0,37.8,PST,-122.27,PM2.5,Oakland,CA
722,94501,28,"{'Number': 1, 'Name': 'Good'}",2018-10-13 ,0,37.8,PST,-122.27,OZONE,Oakland,CA
723,94501,54,"{'Number': 2, 'Name': 'Moderate'}",2018-10-13 ,0,37.8,PST,-122.27,PM2.5,Oakland,CA
724,94521,30,"{'Number': 1, 'Name': 'Good'}",2018-10-14 ,0,37.97,PST,-122.03,OZONE,Concord,CA
725,94521,22,"{'Number': 1, 'Name': 'Good'}",2018-10-14 ,0,37.97,PST,-122.03,PM2.5,Concord,CA
726,94578,34,"{'Number': 1, 'Name': 'Good'}",2018-10-15 ,0,37.8,PST,-122.27,OZONE,Oakland,CA
727,94578,19,"{'Number': 1, 'Name': 'Good'}",2018-10-15 ,0,37.8,PST,-122.27,PM2.5,Oakland,CA
728,95150,41,"{'Number': 1, 'Name': 'Good'}",2018-10-15 ,0,37.33,PST,-121.9,OZONE,San Jose,CA
729,95150,25,"{'Number': 1, 'Name': 'Good'}",2018-10-15 ,0,37.33,PST,-121.9,PM2.5,San Jose,CA
730,95441,25,"{'Number': 1, 'Name': 'Good'}",2018-10-09 ,0,38.45,PST,-122.7,OZONE,Santa Rosa,CA
731,95462,30,"{'Number': 1, 'Name': 'Good'}",2018-10-10 ,0,38.45,PST,-122.7,OZONE,Santa Rosa,CA
732,95462,10,"{'Number': 1, 'Name': 'Good'}",2018-10-10 ,0,38.45,PST,-122.7,PM2.5,Santa Rosa,CA
733,94709,27,"{'Number': 1, 'Name': 'Good'}",2018-10-11 ,0,37.8,PST,-122.27,OZONE,Oakland,CA
734,94709,49,"{'Number': 1, 'Name': 'Good'}",2018-10-11 ,0,37.8,PST,-122.27,PM2.5,Oakland,CA
735,94124,27,"{'Number': 1, 'Name': 'Good'}",2018-10-12 ,0,37.75,PST,-122.43,OZONE,San Francisco,CA
736,94124,29,"{'Number': 1, 'Name': 'Good'}",2018-10-12 ,0,37.75,PST,-122.43,PM2.5,San Francisco,CA
737,95129,38,"{'Number': 1, 'Name': 'Good'}",2018-10-13 ,0,37.33,PST,-121.9,OZONE,San Jose,CA
738,95129,23,"{'Number': 1, 'Name': 'Good'}",2018-10-13 ,0,37.33,PST,-121.9,PM2.5,San Jose,CA
739,94941,31,"{'Number': 1, 'Name': 'Good'}",2018-10-14 ,0,37.97,PST,-122.52,OZONE,San Rafael,CA
740,94941,38,"{'Number': 1, 'Name': 'Good'}",2018-10-14 ,0,37.97,PST,-122.52,PM2.5,San Rafael,CA
741,94159,38,"{'Number': 1, 'Name': 'Good'}",2018-10-15 ,0,37.75,PST,-122.43,OZONE,San Francisco,CA
742,94159,30,"{'Number': 1, 'Name': 'Good'}",2018-10-15 ,0,37.75,PST,-122.43,PM2.5,San Francisco,CA
743,95120,41,"{'Number': 1, 'Name': 'Good'}",2018-10-15 ,0,37.33,PST,-121.9,OZONE,San Jose,CA
744,95120,25,"{'Number': 1, 'Name': 'Good'}",2018-10-15 ,0,37.33,PST,-121.9,PM2.5,San Jose,CA
745,94127,28,"{'Number': 1, 'Name': 'Good'}",2018-10-09 ,0,37.75,PST,-122.43,OZONE,San Francisco,CA
746,94127,27,"{'Number': 1, 'Name': 'Good'}",2018-10-09 ,0,37.75,PST,-122.43,PM2.5,San Francisco,CA
747,94303,26,"{'Number': 1, 'Name': 'Good'}",2018-10-10 ,0,37.48,PST,-122.22,OZONE,Redwood City,CA
748,94303,19,"{'Number': 1, 'Name': 'Good'}",2018-10-10 ,0,37.48,PST,-122.22,PM2.5,Redwood City,CA
749,95445,23,"{'Number': 1, 'Name': 'Good'}",2018-10-11 ,0,38.9088,PST,-123.6931,OZONE,Point Arena,CA
750,95445,11,"{'Number': 1, 'Name': 'Good'}",2018-10-11 ,0,38.9088,PST,-123.6931,PM10,Point Arena,CA
751,94063,33,"{'Number': 1, 'Name': 'Good'}",2018-10-12 ,0,37.48,PST,-122.22,OZONE,Redwood City,CA
752,94063,33,"{'Number': 1, 'Name': 'Good'}",2018-10-12 ,0,37.48,PST,-122.22,PM2.5,Redwood City,CA
753,95152,38,"{'Number': 1, 'Name': 'Good'}",2018-10-13 ,0,37.33,PST,-121.9,OZONE,San Jose,CA
754,95152,23,"{'Number': 1, 'Name': 'Good'}",2018-10-13 ,0,37.33,PST,-121.9,PM2.5,San Jose,CA
755,95136,41,"{'Number': 1, 'Name': 'Good'}",2018-10-14 ,0,37.33,PST,-121.9,OZONE,San Jose,CA
756,95136,32,"{'Number': 1, 'Name': 'Good'}",2018-10-14 ,0,37.33,PST,-121.9,PM2.5,San Jose,CA
757,94014,38,"{'Number': 1, 'Name': 'Good'}",2018-10-15 ,0,37.75,PST,-122.43,OZONE,San Francisco,CA
758,94014,30,"{'Number': 1, 'Name': 'Good'}",2018-10-15 ,0,37.75,PST,-122.43,PM2.5,San Francisco,CA
759,95160,41,"{'Number': 1, 'Name': 'Good'}",2018-10-15 ,0,37.33,PST,-121.9,OZONE,San Jose,CA
760,95160,25,"{'Number': 1, 'Name': 'Good'}",2018-10-15 ,0,37.33,PST,-121.9,PM2.5,San Jose,CA
761,94561,40,"{'Number': 1, 'Name': 'Good'}",2018-10-09 ,0,38.25,PST,-122.04,OZONE,Fairfield,CA
762,95125,31,"{'Number': 1, 'Name': 'Good'}",2018-10-10 ,0,37.33,PST,-121.9,OZONE,San Jose,CA
763,95125,15,"{'Number': 1, 'Name': 'Good'}",2018-10-10 ,0,37.33,PST,-121.9,PM2.5,San Jose,CA
764,94026,28,"{'Number': 1, 'Name': 'Good'}",2018-10-11 ,0,37.48,PST,-122.22,OZONE,Redwood City,CA
765,94026,34,"{'Number': 1, 'Name': 'Good'}",2018-10-11 ,0,37.48,PST,-122.22,PM2.5,Redwood City,CA
766,94066,27,"{'Number': 1, 'Name': 'Good'}",2018-10-12 ,0,37.75,PST,-122.43,OZONE,San Francisco,CA
767,94066,29,"{'Number': 1, 'Name': 'Good'}",2018-10-12 ,0,37.75,PST,-122.43,PM2.5,San Francisco,CA
768,94939,28,"{'Number': 1, 'Name': 'Good'}",2018-10-13 ,0,37.97,PST,-122.52,OZONE,San Rafael,CA
769,94939,39,"{'Number': 1, 'Name': 'Good'}",2018-10-13 ,0,37.97,PST,-122.52,PM2.5,San Rafael,CA
770,94925,31,"{'Number': 1, 'Name': 'Good'}",2018-10-14 ,0,37.97,PST,-122.52,OZONE,San Rafael,CA
771,94925,38,"{'Number': 1, 'Name': 'Good'}",2018-10-14 ,0,37.97,PST,-122.52,PM2.5,San Rafael,CA
772,95132,41,"{'Number': 1, 'Name': 'Good'}",2018-10-15 ,0,37.33,PST,-121.9,OZONE,San Jose,CA
773,95132,25,"{'Number': 1, 'Name': 'Good'}",2018-10-15 ,0,37.33,PST,-121.9,PM2.5,San Jose,CA
774,94606,34,"{'Number': 1, 'Name': 'Good'}",2018-10-15 ,0,37.8,PST,-122.27,OZONE,Oakland,CA
775,94606,19,"{'Number': 1, 'Name': 'Good'}",2018-10-15 ,0,37.8,PST,-122.27,PM2.5,Oakland,CA
776,94608,24,"{'Number': 1, 'Name': 'Good'}",2018-10-09 ,0,37.8,PST,-122.27,OZONE,Oakland,CA
777,94608,46,"{'Number': 1, 'Name': 'Good'}",2018-10-09 ,0,37.8,PST,-122.27,PM2.5,Oakland,CA
778,95035,31,"{'Number': 1, 'Name': 'Good'}",2018-10-10 ,0,37.33,PST,-121.9,OZONE,San Jose,CA
779,95035,15,"{'Number': 1, 'Name': 'Good'}",2018-10-10 ,0,37.33,PST,-121.9,PM2.5,San Jose,CA
780,94957,28,"{'Number': 1, 'Name': 'Good'}",2018-10-11 ,0,37.97,PST,-122.52,OZONE,San Rafael,CA
781,94957,32,"{'Number': 1, 'Name': 'Good'}",2018-10-11 ,0,37.97,PST,-122.52,PM2.5,San Rafael,CA
782,94956,34,"{'Number': 1, 'Name': 'Good'}",2018-10-12 ,0,37.97,PST,-122.52,OZONE,San Rafael,CA
783,94956,26,"{'Number': 1, 'Name': 'Good'}",2018-10-12 ,0,37.97,PST,-122.52,PM2.5,San Rafael,CA
784,94607,28,"{'Number': 1, 'Name': 'Good'}",2018-10-13 ,0,37.8,PST,-122.27,OZONE,Oakland,CA
785,94607,54,"{'Number': 2, 'Name': 'Moderate'}",2018-10-13 ,0,37.8,PST,-122.27,PM2.5,Oakland,CA
786,95472,29,"{'Number': 1, 'Name': 'Good'}",2018-10-14 ,0,38.45,PST,-122.7,OZONE,Santa Rosa,CA
787,94546,39,"{'Number': 1, 'Name': 'Good'}",2018-10-15 ,0,37.55,PST,-122.03,OZONE,Fremont,CA
788,94546,20,"{'Number': 1, 'Name': 'Good'}",2018-10-15 ,0,37.55,PST,-122.03,PM2.5,Fremont,CA
789,94951,41,"{'Number': 1, 'Name': 'Good'}",2018-10-15 ,0,38.45,PST,-122.7,OZONE,Santa Rosa,CA
790,94951,4,"{'Number': 1, 'Name': 'Good'}",2018-10-15 ,0,38.45,PST,-122.7,PM2.5,Santa Rosa,CA
791,94141,28,"{'Number': 1, 'Name': 'Good'}",2018-10-09 ,0,37.75,PST,-122.43,OZONE,San Francisco,CA
792,94141,27,"{'Number': 1, 'Name': 'Good'}",2018-10-09 ,0,37.75,PST,-122.43,PM2.5,San Francisco,CA
793,94114,33,"{'Number': 1, 'Name': 'Good'}",2018-10-10 ,0,37.75,PST,-122.43,PM2.5,San Francisco,CA
794,94588,34,"{'Number': 1, 'Name': 'Good'}",2018-10-11 ,0,37.68,PST,-121.77,OZONE,Livermore,CA
795,94588,35,"{'Number': 1, 'Name': 'Good'}",2018-10-11 ,0,37.68,PST,-121.77,PM2.5,Livermore,CA
796,94611,25,"{'Number': 1, 'Name': 'Good'}",2018-10-12 ,0,37.8,PST,-122.27,OZONE,Oakland,CA
797,94611,44,"{'Number': 1, 'Name': 'Good'}",2018-10-12 ,0,37.8,PST,-122.27,PM2.5,Oakland,CA
798,95008,38,"{'Number': 1, 'Name': 'Good'}",2018-10-13 ,0,37.33,PST,-121.9,OZONE,San Jose,CA
799,95008,23,"{'Number': 1, 'Name': 'Good'}",2018-10-13 ,0,37.33,PST,-121.9,PM2.5,San Jose,CA
800,94516,32,"{'Number': 1, 'Name': 'Good'}",2018-10-14 ,0,37.8,PST,-122.27,OZONE,Oakland,CA
801,94516,59,"{'Number': 2, 'Name': 'Moderate'}",2018-10-14 ,0,37.8,PST,-122.27,PM2.5,Oakland,CA
802,95461,41,"{'Number': 1, 'Name': 'Good'}",2018-10-15 ,0,38.45,PST,-122.7,OZONE,Santa Rosa,CA
803,95461,4,"{'Number': 1, 'Name': 'Good'}",2018-10-15 ,0,38.45,PST,-122.7,PM2.5,Santa Rosa,CA
804,94512,41,"{'Number': 1, 'Name': 'Good'}",2018-10-15 ,0,38.25,PST,-122.04,OZONE,Fairfield,CA
805,94062,24,"{'Number': 1, 'Name': 'Good'}",2018-10-09 ,0,37.48,PST,-122.22,OZONE,Redwood City,CA
806,94062,29,"{'Number': 1, 'Name': 'Good'}",2018-10-09 ,0,37.48,PST,-122.22,PM2.5,Redwood City,CA
